##########################################################
# Query made at 05/23/2018 08:49:48 UTC
# Time interval: from 05/11/2018 00:00  to 05/12/2018 23:59  UTC
##########################################################
##########################################################
# EKMB, Maribo Lufthavn (Denmark)
# WMO index: 06143
# Latitude 54-42N. Longitude 011-27E. Altitude 5 m.
##########################################################
###################################
#  METAR/SPECI from EKMB
###################################
201805121920 METAR EKAH 121920Z AUTO 03004KT 360V060 9999NDV NCD 15/09 Q1019=
201805121850 METAR EKAH 121850Z AUTO 04004KT 010V070 9999NDV NCD 15/09 Q1019=
201805121820 METAR EKAH 121820Z AUTO 05004KT 9999NDV NCD 15/08 Q1019=
201805121750 METAR EKAH 121750Z AUTO 04007KT 9999NDV NCD 16/07 Q1019=
201805121720 METAR EKAH 121720Z AUTO 03008KT 9999NDV NCD 16/07 Q1019=
201805121650 METAR EKAH 121650Z AUTO 05008KT 9999NDV NCD 17/06 Q1019=
201805121620 METAR EKAH 121620Z AUTO 06008KT 030V090 9999NDV NCD 18/07 Q1019=
201805121550 METAR EKAH 121550Z AUTO 05007KT 9999NDV NCD 18/07 Q1019=
201805121520 METAR EKAH 121520Z AUTO 05007KT 020V080 9999NDV NCD 18/07 Q1020=
201805121450 METAR EKAH 121450Z AUTO 06007KT 020V100 9999NDV NCD 19/07 Q1020=
201805121420 METAR EKAH 121420Z AUTO 07006KT 040V130 9999NDV NCD 19/07 Q1020=
201805121350 METAR EKAH 121350Z AUTO 07006KT 030V120 9999NDV NCD 19/07 Q1020=
201805121320 METAR EKAH 121320Z AUTO 09005KT 040V170 9999NDV NCD 19/08 Q1020=