##########################################################
# Query made at 05/23/2018 08:45:43 UTC
# Time interval: from 05/11/2018 00:00  to 05/12/2018 23:59  UTC
##########################################################

##########################################################
# EKAH, Tirstrup (Denmark)
# WMO index: 06070
# Latitude 56-18N. Longitude 010-37E. Altitude 23 m.
##########################################################

###################################
#  METAR/SPECI from EKAH
###################################
201805122350 METAR EKAH 122350Z AUTO 00000KT 9999NDV NCD 13/10 Q1019=
201805122320 METAR EKAH 122320Z AUTO 00000KT 9999NDV NCD 13/10 Q1019=
201805122250 METAR EKAH 122250Z AUTO 00000KT 9999NDV NCD 13/09 Q1019=
201805122220 METAR EKAH 122220Z AUTO 00000KT 9999NDV NCD 13/09 Q1019=
201805122150 METAR EKAH 122150Z AUTO 09001KT 9999NDV NCD 13/09 Q1019=
201805122120 METAR EKAH 122120Z AUTO 04001KT 9999NDV NCD 14/09 Q1019=
201805122050 METAR EKAH 122050Z AUTO 03002KT 9999NDV NCD 14/09 Q1019=
201805122020 METAR EKAH 122020Z AUTO 02001KT 9999NDV NCD 14/09 Q1019=
201805121950 METAR EKAH 121950Z AUTO 05003KT 9999NDV NCD 14/09 Q1019=
201805121920 METAR EKAH 121920Z AUTO 03004KT 360V060 9999NDV NCD 15/09
                        Q1019=
201805121850 METAR EKAH 121850Z AUTO 04004KT 010V070 9999NDV NCD 15/09
                        Q1019=
201805121820 METAR EKAH 121820Z AUTO 05004KT 9999NDV NCD 15/08 Q1019=
201805121750 METAR EKAH 121750Z AUTO 04007KT 9999NDV NCD 16/07 Q1019=
201805121720 METAR EKAH 121720Z AUTO 03008KT 9999NDV NCD 16/07 Q1019=
201805121650 METAR EKAH 121650Z AUTO 05008KT 9999NDV NCD 17/06 Q1019=
201805121620 METAR EKAH 121620Z AUTO 06008KT 030V090 9999NDV NCD 18/07
                        Q1019=
201805121550 METAR EKAH 121550Z AUTO 05007KT 9999NDV NCD 18/07 Q1019=
201805121520 METAR EKAH 121520Z AUTO 05007KT 020V080 9999NDV NCD 18/07
                        Q1020=
201805121450 METAR EKAH 121450Z AUTO 06007KT 020V100 9999NDV NCD 19/07
                        Q1020=
201805121420 METAR EKAH 121420Z AUTO 07006KT 040V130 9999NDV NCD 19/07
                        Q1020=
201805121350 METAR EKAH 121350Z AUTO 07006KT 030V120 9999NDV NCD 19/07
                        Q1020=
201805121320 METAR EKAH 121320Z AUTO 09005KT 040V170 9999NDV NCD 19/08
                        Q1020=
201805121250 METAR EKAH 121250Z AUTO 07005KT 010V110 9999NDV NCD 18/08
                        Q1020=
201805121220 METAR EKAH 121220Z AUTO 08005KT 030V140 9999NDV NCD 18/08
                        Q1020=
201805121150 METAR EKAH 121150Z AUTO 09005KT 030V120 9999NDV NCD 18/08
                        Q1021=
201805121120 METAR EKAH 121120Z AUTO 11006KT 070V150 9999NDV NCD 18/08
                        Q1021=
201805121050 METAR EKAH 121050Z AUTO 13004KT 060V230 9999NDV NCD 19/09
                        Q1021=
201805121020 METAR EKAH 121020Z AUTO VRB04KT 9999NDV NCD 18/08 Q1021=
201805120950 METAR EKAH 120950Z AUTO 13004KT 060V230 9999NDV NCD 18/09
                        Q1021=
201805120920 METAR EKAH 120920Z AUTO VRB04KT 9999NDV NCD 17/08 Q1021=
201805120850 METAR EKAH 120850Z AUTO 14005KT 080V190 9999NDV NCD 17/09
                        Q1021=
201805120820 METAR EKAH 120820Z AUTO 13004KT 080V190 9999NDV NCD 17/09
                        Q1021=
201805120750 METAR EKAH 120750Z AUTO 14004KT 090V190 9999NDV NCD 16/09
                        Q1021=
201805120720 METAR EKAH 120720Z AUTO 14003KT 9999NDV NCD 15/10 Q1021=
201805120650 METAR EKAH 120650Z 11004KT 070V190 CAVOK 14/10 Q1021=
201805120620 METAR EKAH 120620Z 11004KT 070V140 CAVOK 13/11 Q1021=
201805120550 METAR EKAH 120550Z 08002KT 9999 NSC 11/10 Q1021=
201805120523 METAR EKAH 120523Z NIL=
201805120520 METAR EKAH 120520Z 10001KT 9999 NSC 11/10 Q1021=
201805120450 METAR EKAH 120450Z AUTO 13001KT 9999NDV NCD 09/08 Q1021=
201805120420 METAR EKAH 120420Z AUTO 00000KT 9999NDV NCD 08/07 Q1020=
201805120350 METAR EKAH 120350Z AUTO 00000KT 7000NDV NCD 08/06 Q1020=
201805120320 METAR EKAH 120320Z AUTO VRB01KT 8000NDV NCD 07/06 Q1020=
201805120250 METAR EKAH 120250Z AUTO 09001KT 4000NDV BCFG NCD 06/05 Q1020=
201805120220 METAR EKAH 120220Z AUTO 11002KT 0900NDV R10R/P1500N R28L/0750D
                        BCFG NCD 06/05 Q1020=
201805120150 METAR EKAH 120150Z AUTO 10001KT 0400NDV R10R/P1500N R28L/P1500U
                        FG NCD 06/05 Q1020=
201805120120 METAR EKAH 120120Z AUTO 00000KT 2900NDV BCFG NCD 06/05 Q1020=
201805120050 METAR EKAH 120050Z AUTO 00000KT 0300NDV R10R/P1500N R28L/P1500N
                        BCFG NCD 06/05 Q1020=
201805120020 METAR EKAH 120020Z AUTO 00000KT 0300NDV R10R/0800N R28L/P1500U
                        FG NCD 06/05 Q1021=
201805112350 METAR EKAH 112350Z AUTO 00000KT 9999NDV NCD 07/06 Q1021=
201805112320 METAR EKAH 112320Z AUTO 00000KT 1400NDV R10R/P1500N R28L/P1500N
                        BR NCD 07/06 Q1021=
201805112250 METAR EKAH 112250Z AUTO 28002KT 9999NDV NCD 08/07 Q1021=
201805112220 METAR EKAH 112220Z AUTO 00000KT 9999NDV NCD 08/06 Q1020=
201805112150 METAR EKAH 112150Z AUTO 14001KT 7000NDV NCD 09/07 Q1021=
201805112120 METAR EKAH 112120Z AUTO 10001KT 9999NDV NCD 10/08 Q1020=
201805112050 METAR EKAH 112050Z AUTO 11001KT 9999NDV NCD 10/08 Q1020=
201805112020 METAR EKAH 112020Z AUTO 11001KT 9999NDV NCD 11/08 Q1020=
201805111950 METAR EKAH 111950Z AUTO 29001KT 9999NDV NCD 11/08 Q1020=
201805111920 METAR EKAH 111920Z AUTO 00000KT 9999NDV NCD 13/09 Q1020=
201805111850 METAR EKAH 111850Z AUTO 14002KT 9999NDV NCD 14/09 Q1020=
201805111820 METAR EKAH 111820Z AUTO 14004KT 110V180 9999NDV NCD 14/09
                        Q1020=
201805111750 METAR EKAH 111750Z AUTO 15005KT 110V190 9999NDV NCD 15/09
                        Q1019=
201805111720 METAR EKAH 111720Z AUTO 14005KT 100V170 9999NDV NCD 16/10
                        Q1019=
201805111650 METAR EKAH 111650Z AUTO 09006KT 9999NDV NCD 16/09 Q1019=
201805111620 METAR EKAH 111620Z AUTO 09007KT 9999NDV NCD 16/10 Q1019=
201805111550 METAR EKAH 111550Z AUTO 08006KT 9999NDV NCD 16/10 Q1020=
201805111520 METAR EKAH 111520Z AUTO 09005KT 050V120 9999NDV NCD 17/10
                        Q1020=
201805111450 METAR EKAH 111450Z AUTO 09008KT 9999NDV NCD 17/10 Q1020=
201805111420 METAR EKAH 111420Z AUTO 31004KT 260V020 9999NDV NCD 18/06
                        Q1020=
201805111350 METAR EKAH 111350Z AUTO 31004KT 260V340 9999NDV NCD 18/06
                        Q1020=
201805111320 METAR EKAH 111320Z AUTO 27004KT 220V330 9999NDV NCD 18/07
                        Q1020=
201805111250 METAR EKAH 111250Z AUTO 31005KT 270V360 9999NDV NCD 18/06
                        Q1019=
201805111220 METAR EKAH 111220Z AUTO 31005KT 260V360 9999NDV NCD 18/06
                        Q1020=
201805111150 METAR EKAH 111150Z AUTO 26007KT 230V300 9999NDV NCD 17/07
                        Q1020=
201805111120 METAR EKAH 111120Z AUTO 28007KT 250V330 9999NDV NCD 17/07
                        Q1019=
201805111050 METAR EKAH 111050Z AUTO 29008KT 230V320 9999NDV NCD 16/08
                        Q1020=
201805111020 METAR EKAH 111020Z AUTO 27009KT 240V320 9999NDV NCD 16/08
                        Q1019=
201805110950 METAR EKAH 110950Z AUTO 28010KT 250V320 9999NDV NCD 15/09
                        Q1019=
201805110920 METAR EKAH 110920Z AUTO 28010KT 250V320 9999NDV NCD 15/08
                        Q1019=
201805110850 METAR EKAH 110850Z AUTO 28008KT 240V320 9999NDV NCD 15/09
                        Q1019=
201805110820 METAR EKAH 110820Z AUTO 28008KT 250V320 9999NDV NCD 14/09
                        Q1019=
201805110750 METAR EKAH 110750Z AUTO 29009KT 260V330 9999NDV NCD 13/08
                        Q1019=
201805110720 METAR EKAH 110720Z AUTO 29005KT 260V340 9999NDV NCD 13/09
                        Q1019=
201805110650 METAR EKAH 110650Z AUTO 29006KT 9999NDV NCD 12/09 Q1019=
201805110620 METAR EKAH 110620Z AUTO 30008KT 9999NDV NCD 11/09 Q1018=
201805110550 METAR EKAH 110550Z AUTO 29007KT 9999NDV NCD 10/09 Q1018=
201805110520 METAR EKAH 110520Z AUTO 29009KT 9999NDV NCD 10/09 Q1018=
201805110450 METAR EKAH 110450Z AUTO 29010KT 9999NDV NCD 09/09 Q1018=
201805110420 METAR EKAH 110420Z AUTO 27008KT 9999NDV NCD 09/09 Q1018=
201805110350 METAR EKAH 110350Z AUTO 28009KT 9999NDV NCD 10/09 Q1017=
201805110320 METAR EKAH 110320Z AUTO 28009KT 9999NDV NCD 10/09 Q1017=
201805110250 METAR EKAH 110250Z AUTO 29008KT 9999NDV NCD 10/09 Q1017=
201805110220 METAR EKAH 110220Z AUTO 29008KT 9999NDV NCD 10/10 Q1016=
201805110150 METAR EKAH 110150Z AUTO 28007KT 9999NDV NCD 10/10 Q1016=
201805110120 METAR EKAH 110120Z AUTO 30008KT 9999NDV NCD 10/10 Q1016=
201805110050 METAR EKAH 110050Z AUTO 29010KT 9999NDV NCD 11/10 Q1016=
201805110020 METAR EKAH 110020Z AUTO 30007KT 9999NDV NCD 11/10 Q1016=

# No short TAF reports from EKAH in databse.

###################################
#  large TAF from EKAH
###################################
201805122259 TAF EKAH 122259Z 1300/1324 VRB05KT 9999 FEW040
                      BECMG 1309/1312 09010KT=
201805121657 TAF EKAH 121657Z 1218/1318 VRB05KT 9999 SCT040
                      BECMG 1309/1312 09010KT=
201805121112 TAF EKAH 121112Z 1212/1312 05006KT CAVOK=
201805120506 TAF EKAH 120506Z 1206/1306 VRB03KT CAVOK=
201805120041 TAF AMD EKAH 120041Z 1200/1224 VRB03KT 0300 FG NSC
                      TEMPO 1200/1203 9999 NSW
                      BECMG 1203/1205 9999 NSW=
201805112300 TAF AMD EKAH 120041Z 1200/1224 VRB03KT 0300 FG NSC
                      TEMPO 1200/1203 9999 NSW
                      BECMG 1203/1205 9999 NSW=
201805112252 TAF EKAH 112252Z 1200/1224 VRB03KT CAVOK=
201805111707 TAF EKAH 111707Z 1118/1218 VRB02KT CAVOK
                      BECMG 1206/1209 12010KT=
201805111056 TAF EKAH 111056Z 1112/1212 30010KT 9999 SCT025
                      BECMG 1117/1119 VRB02KT
                      BECMG 1206/1209 12010KT=
201805110510 TAF EKAH 110510Z 1106/1206 30010KT 9999 SCT025
                      BECMG 1117/1119 VRB02KT=
