##########################################################
# Query made at 05/23/2018 08:47:10 UTC
# Time interval: from 05/11/2018 00:00  to 05/12/2018 23:59  UTC
##########################################################
##########################################################
# EKBI, Billund Lufthavn (Denmark)
# WMO index: 06104
# Latitude 55-44N. Longitude 009-10E. Altitude 75 m.
##########################################################
###################################
#  METAR/SPECI from EKBI
###################################
201805122350 METAR EKBI 122350Z AUTO 10004KT 060V130 9999NDV OVC069/// 12/07 Q1018=
201805122320 METAR EKBI 122320Z AUTO 10003KT 9999NDV OVC069/// 12/07 Q1018=
201805122250 METAR EKBI 122250Z AUTO 08006KT 9999NDV OVC072/// 12/06 Q1018=
201805122220 METAR EKBI 122220Z AUTO 09008KT 9999NDV OVC073/// 13/06 Q1018=
201805122150 METAR EKBI 122150Z AUTO 09009KT 9999NDV BKN071/// 13/06 Q1018=
201805122120 METAR EKBI 122120Z AUTO 10006KT 9999NDV BKN073/// 12/06 Q1018=
201805122050 METAR EKBI 122050Z AUTO 10006KT 9999NDV BKN075/// 12/05 Q1018=
201805122020 METAR EKBI 122020Z AUTO 10006KT 9999NDV BKN077/// 11/05 Q1018=
201805121950 METAR EKBI 121950Z AUTO 10007KT 9999NDV SCT077/// 12/04 Q1018=
201805121920 METAR EKBI 121920Z AUTO 10005KT 9999NDV NCD 12/04 Q1018=
201805121850 METAR EKBI 121850Z AUTO 09005KT 9999NDV NCD 13/05 Q1018=
201805121820 METAR EKBI 121820Z AUTO 08006KT 9999NDV NCD 13/06 Q1018=
201805121750 METAR EKBI 121750Z AUTO 08010KT 9999NDV BKN079/// 16/06 Q1018=
201805121720 METAR EKBI 121720Z AUTO 08008KT 9999NDV BKN080/// 15/06 Q1018=
201805121650 METAR EKBI 121650Z AUTO 09010KT 9999NDV BKN080/// 17/07 Q1018=
201805121620 METAR EKBI 121620Z AUTO 11007KT 080V140 9999NDV NCD 18/08 Q1018=
201805121550 METAR EKBI 121550Z AUTO 10007KT 080V140 9999NDV NCD 17/08 Q1018=
201805121520 METAR EKBI 121520Z AUTO 10008KT 080V140 9999NDV FEW078/// 18/08 Q1018=
201805121450 METAR EKBI 121450Z 10009KT 060V120 CAVOK 19/09 Q1018=
201805121420 METAR EKBI 121420Z 10009KT 070V130 CAVOK 18/09 Q1018=
201805121350 METAR EKBI 121350Z 08010KT 050V120 9999 FEW039 FEW040TCU 18/09 Q1019=
201805121320 METAR EKBI 121320Z 09010KT 060V130 9999 SCT039 FEW040TCU 18/09 Q1019=
201805121250 METAR EKBI 121250Z 09008KT 060V130 9999 FEW039 FEW040TCU 19/10 Q1019=
201805121220 METAR EKBI 121220Z AUTO 10007KT 070V150 9999NDV FEW087/// 18/08 Q1019=
201805121150 METAR EKBI 121150Z AUTO 09008KT 060V130 9999NDV OVC087/// 18/08 Q1019=
201805121120 METAR EKBI 121120Z AUTO 09007KT 060V120 9999NDV OVC085/// 16/09 Q1020=
201805121050 METAR EKBI 121050Z AUTO 08007KT 9999NDV BKN081/// 15/09 Q1020=
201805121020 METAR EKBI 121020Z AUTO 11006KT 070V150 9999NDV BKN067/// 15/09 Q1020=
201805120950 METAR EKBI 120950Z AUTO 10005KT 9999NDV OVC052/// 14/09 Q1020=
201805120920 METAR EKBI 120920Z AUTO 10004KT 9999NDV BKN052/// 14/09 Q1020=
201805120850 METAR EKBI 120850Z AUTO 11005KT 070V130 9999NDV BKN053/// 15/09 Q1020=
201805120820 METAR EKBI 120820Z AUTO 10006KT 070V130 9999NDV BKN047/// 14/09 Q1020=
201805120750 METAR EKBI 120750Z AUTO 10007KT 9999NDV BKN045/// BKN058/// BKN075/// 14/08 Q1020=
201805120720 METAR EKBI 120720Z AUTO 08005KT 060V120 9999NDV FEW059/// BKN077/// 14/08 Q1020=
201805120650 METAR EKBI 120650Z AUTO 10006KT 9999NDV BKN079/// 13/08 Q1020=
201805120620 METAR EKBI 120620Z AUTO 10005KT 9999NDV BKN083/// 13/09 Q1020=
201805120550 METAR EKBI 120550Z AUTO 11004KT 9999NDV BKN084/// 11/08 Q1020=
201805120520 METAR EKBI 120520Z AUTO 09003KT 9999NDV BKN084/// 10/08 Q1020=
201805120450 METAR EKBI 120450Z AUTO 09003KT 9999NDV BKN084/// 08/07 Q1020=
201805120420 METAR EKBI 120420Z 10003KT CAVOK 06/06 Q1020=
201805120350 METAR EKBI 120350Z 10001KT 9999 MIFG NSC 05/04 Q1020=
201805120320 METAR EKBI 120320Z 11002KT 9999 MIFG NSC 04/04 Q1019=
201805120250 METAR EKBI 120250Z 11002KT 9999 MIFG SKC 05/05 Q1019=
201805120220 METAR EKBI 120220Z 07001KT 9999 MIFG SKC 04/03 Q1019=
201805120150 METAR EKBI 120150Z 00000KT 9999 MIFG SKC 04/03 Q1019=
201805120120 METAR EKBI 120120Z 10001KT 9999 MIFG SKC 04/04 Q1019=
201805120050 METAR EKBI 120050Z 00000KT 9999 MIFG SKC 05/04 Q1019=
201805120020 METAR EKBI 120020Z AUTO 00000KT 9999NDV NCD 05/04 Q1020=
201805112350 METAR EKBI 112350Z AUTO 13001KT 9999NDV NCD 07/05 Q1020=
201805112320 METAR EKBI 112320Z AUTO 00000KT 9999NDV NCD 07/04 Q1020=
201805112250 METAR EKBI 112250Z AUTO 04002KT 9999NDV NCD 08/05 Q1020=
201805112220 METAR EKBI 112220Z AUTO 03002KT 9999NDV NCD 09/05 Q1020=
201805112150 METAR EKBI 112150Z AUTO 01002KT 9999NDV NCD 07/05 Q1020=
201805112120 METAR EKBI 112120Z AUTO 36003KT 9999NDV NCD 07/05 Q1020=
201805112050 METAR EKBI 112050Z AUTO 33002KT 9999NDV FEW055/// 07/05 Q1020=
201805112020 METAR EKBI 112020Z AUTO 27003KT 9999NDV NCD 08/05 Q1020=
201805111950 METAR EKBI 111950Z AUTO 30005KT 9999NDV NCD 10/06 Q1020=
201805111920 METAR EKBI 111920Z AUTO 30005KT 9999NDV NCD 11/06 Q1020=
201805111850 METAR EKBI 111850Z AUTO 30005KT 9999NDV NCD 13/07 Q1019=
201805111820 METAR EKBI 111820Z AUTO 29007KT 9999NDV NCD 14/07 Q1019=
201805111750 METAR EKBI 111750Z AUTO 29008KT 230V320 9999NDV NCD 15/06 Q1019=
201805111720 METAR EKBI 111720Z AUTO 27010KT 9999NDV NCD 15/06 Q1019=
201805111650 METAR EKBI 111650Z AUTO 28004KT 230V340 9999NDV NCD 16/04 Q1019=
201805111620 METAR EKBI 111620Z AUTO 27004KT 210V320 9999NDV NCD 16/03 Q1019=
201805111550 METAR EKBI 111550Z AUTO VRB04KT 9999NDV NCD 16/04 Q1019=
201805111520 METAR EKBI 111520Z AUTO 27004KT 240V340 9999NDV NCD 16/03 Q1020=
201805111450 METAR EKBI 111450Z AUTO VRB02KT 9999NDV NCD 16/03 Q1020=
201805111420 METAR EKBI 111420Z AUTO VRB05KT 9999NDV NCD 16/01 Q1020=
201805111350 METAR EKBI 111350Z AUTO 28007KT 240V320 9999NDV NCD 16/03 Q1020=
201805111320 METAR EKBI 111320Z AUTO 25005KT 200V290 9999NDV NCD 16/04 Q1020=
201805111250 METAR EKBI 111250Z AUTO 26006KT 210V320 9999NDV NCD 15/05 Q1020=
201805111220 METAR EKBI 111220Z AUTO 26007KT 220V300 9999NDV NCD 16/06 Q1020=
201805111150 METAR EKBI 111150Z AUTO 29007KT 230V320 9999NDV NCD 15/06 Q1020=
201805111120 METAR EKBI 111120Z AUTO 28007KT 9999NDV NCD 14/05 Q1020=
201805111050 METAR EKBI 111050Z AUTO 29008KT 9999NDV NCD 14/06 Q1020=
201805111020 METAR EKBI 111020Z AUTO 26005KT 210V330 9999NDV NCD 14/06 Q1020=
201805110950 METAR EKBI 110950Z AUTO 29007KT 270V330 9999NDV NCD 13/06 Q1020=
201805110920 METAR EKBI 110920Z AUTO 30006KT 240V330 9999NDV NCD 13/06 Q1020=
201805110850 METAR EKBI 110850Z AUTO 30008KT 270V330 9999NDV NCD 12/06 Q1020=
201805110820 METAR EKBI 110820Z AUTO 28008KT 230V320 9999NDV NCD 12/07 Q1020=
201805110750 METAR EKBI 110750Z AUTO 27010KT 240V310 9999NDV NCD 11/07 Q1020=
201805110720 METAR EKBI 110720Z AUTO 28009KT 9999NDV FEW014/// 11/06 Q1020=
201805110650 METAR EKBI 110650Z AUTO 28010KT 9999NDV NCD 10/07 Q1020=
201805110620 METAR EKBI 110620Z AUTO 30008KT 9999NDV NCD 10/07 Q1020=
201805110550 METAR EKBI 110550Z AUTO 30005KT 270V330 9999NDV FEW008/// 09/07 Q1020=
201805110520 METAR EKBI 110520Z AUTO 29007KT 9999NDV FEW098/// 08/07 Q1019=
201805110450 METAR EKBI 110450Z 28007KT 9999 FEW013 SCT096 08/07 Q1019=
201805110420 METAR EKBI 110420Z 29006KT 250V320 9999 FEW013 SCT096 SCT110 08/07 Q1019=
201805110350 METAR EKBI 110350Z AUTO 29006KT 9999NDV OVC092/// 08/07 Q1019=
201805110320 METAR EKBI 110320Z AUTO 30006KT 9999NDV FEW010/// BKN091/// BKN100/// 08/07 Q1018=
201805110250 METAR EKBI 110250Z AUTO 29008KT 9999NDV BKN009/// BKN110/// 08/07 Q1018=
201805110220 METAR EKBI 110220Z AUTO 29008KT 9999NDV SCT006/// BKN100/// 09/08 Q1018=
201805110150 METAR EKBI 110150Z AUTO 29007KT 9999NDV BKN006/// BKN095/// 09/08 Q1018=
201805110120 METAR EKBI 110120Z AUTO 29008KT 9999NDV BKN007/// BKN095/// 09/08 Q1017=
201805110050 METAR EKBI 110050Z AUTO 29008KT 9999NDV BKN007/// BKN086/// 09/08 Q1017=
201805110020 METAR EKBI 110020Z AUTO 29008KT 9999NDV OVC084/// 09/08 Q1017=
# No short TAF reports from EKBI in databse.
###################################
#  large TAF from EKBI
###################################
201805122259 TAF EKBI 122259Z 1300/1324 09008KT CAVOK=
201805121657 TAF EKBI 121657Z 1218/1318 09008KT CAVOK=
201805121112 TAF EKBI 121112Z 1212/1312 09006KT CAVOK=
201805120506 TAF EKBI 120506Z 1206/1306 10005KT CAVOK=
201805112252 TAF EKBI 112252Z 1200/1224 VRB03KT CAVOK BECMG 1206/1209 10008KT=
201805111707 TAF EKBI 111707Z 1118/1218 30005KT CAVOK BECMG 1206/1209 12008KT=
201805111056 TAF EKBI 111056Z 1112/1212 30008KT 9999 SCT025 BECMG 1206/1209 12010KT=
201805110510 TAF EKBI 110510Z 1106/1206 30008KT 9999 SCT025=
