##########################################################
# Query made at 05/23/2018 08:51:01 UTC
# Time interval: from 05/11/2018 00:00  to 05/12/2018 23:59  UTC
##########################################################
##########################################################
# EKCH, Koebenhavn / Kastrup (Denmark)
# WMO index: 06180
# Latitude 55-37N. Longitude 012-39E. Altitude 5 m.
##########################################################
###################################
#  METAR/SPECI from EKCH
###################################
201805122350 METAR EKCH 122350Z 15001KT 4000 BR SKC 11/10 Q1019 TEMPO 9000=
201805122320 METAR EKCH 122320Z 16001KT 7000 NSC 11/10 Q1019 TEMPO 4000=
201805122250 METAR EKCH 122250Z 12004KT 8000 NSC 11/10 Q1019 NOSIG=
201805122220 METAR EKCH 122220Z 11005KT CAVOK 12/10 Q1019 NOSIG=
201805122150 METAR EKCH 122150Z 14004KT CAVOK 12/09 Q1019 NOSIG=
201805122120 METAR EKCH 122120Z 14002KT CAVOK 12/09 Q1019 NOSIG=
201805122050 METAR EKCH 122050Z 00000KT CAVOK 12/10 Q1019 NOSIG=
201805122020 METAR EKCH 122020Z 21001KT CAVOK 12/09 Q1019 NOSIG=
201805121949 METAR EKCH 121949Z 22001KT CAVOK 11/09 Q1019 NOSIG=
201805121923 METAR EKCH 121923Z NIL=
201805121850 METAR EKCH 121850Z 19003KT 9999 FEW029 12/10 Q1019 NOSIG=
201805121820 METAR EKCH 121820Z 16006KT 9999 SCT025 14/10 Q1019 NOSIG=
201805121749 METAR EKCH 121749Z 16006KT 9999 BKN030 14/10 Q1019 NOSIG=
201805121720 METAR EKCH 121720Z 17007KT 9999 BKN030 14/10 Q1019 NOSIG=
201805121650 METAR EKCH 121650Z 18007KT 9999 BKN030 14/10 Q1019 NOSIG=
201805121619 METAR EKCH 121619Z 18007KT 9999 BKN030 14/10 Q1019 NOSIG=
201805121549 METAR EKCH 121549Z 16006KT 9999 BKN033 16/11 Q1019 NOSIG=
201805121520 METAR EKCH 121520Z 15005KT 9999 BKN035 17/10 Q1019 NOSIG=
201805121450 METAR EKCH 121450Z 15004KT 120V180 9999 BKN037 17/11 Q1019 NOSIG=
201805121420 METAR EKCH 121420Z 14004KT 9999 BKN040 17/10 Q1019 NOSIG=
201805121350 METAR EKCH 121350Z 16003KT 9999 BKN039 17/11 Q1019 NOSIG=
201805121320 METAR EKCH 121320Z 15004KT 110V180 9999 BKN039 16/10 Q1019 NOSIG=
201805121250 METAR EKCH 121250Z 16003KT 9999 BKN040 17/10 Q1019 NOSIG=
201805121220 METAR EKCH 121220Z 14004KT 110V180 9999 BKN040 17/10 Q1020 NOSIG=
201805121150 METAR EKCH 121150Z 09004KT 060V120 9999 OVC040 17/08 Q1020 NOSIG=
201805121120 METAR EKCH 121120Z 06004KT 010V080 9999 BKN040 17/09 Q1020 NOSIG=
201805121050 METAR EKCH 121050Z 01003KT 9999 BKN038 16/08 Q1020 NOSIG=
201805121020 METAR EKCH 121020Z 01003KT 9999 BKN040 16/09 Q1020 NOSIG=
201805120950 METAR EKCH 120950Z 03003KT 9999 BKN038 16/08 Q1020 NOSIG=
201805120919 METAR EKCH 120919Z 01004KT 9999 SCT033 17/09 Q1020 NOSIG=
201805120850 METAR EKCH 120850Z 36005KT 330V040 CAVOK 15/10 Q1020 NOSIG=
201805120820 METAR EKCH 120820Z 01005KT 330V050 CAVOK 15/10 Q1021 NOSIG=
201805120750 METAR EKCH 120750Z 02006KT 340V040 CAVOK 14/09 Q1020 NOSIG=
201805120720 METAR EKCH 120720Z 01007KT 320V040 CAVOK 14/09 Q1020 NOSIG=
201805120650 METAR EKCH 120650Z 36007KT 320V040 CAVOK 14/10 Q1020 NOSIG=
201805120620 METAR EKCH 120620Z 35007KT CAVOK 14/09 Q1020 NOSIG=
201805120550 METAR EKCH 120550Z 35007KT CAVOK 13/10 Q1020 NOSIG=
201805120520 METAR EKCH 120520Z 35007KT 330V030 CAVOK 13/10 Q1020 NOSIG=
201805120450 METAR EKCH 120450Z 35006KT CAVOK 12/10 Q1020 NOSIG=
201805120420 METAR EKCH 120420Z 36006KT CAVOK 11/09 Q1020 NOSIG=
201805120350 METAR EKCH 120350Z 36005KT CAVOK 11/08 Q1020 NOSIG=
201805120320 METAR EKCH 120320Z 01005KT CAVOK 11/08 Q1020 NOSIG=
201805120250 METAR EKCH 120250Z 35006KT CAVOK 10/07 Q1020 NOSIG=
201805120220 METAR EKCH 120220Z 01004KT CAVOK 11/07 Q1020 NOSIG=
201805120150 METAR EKCH 120150Z 36003KT CAVOK 10/08 Q1020 NOSIG=
201805120120 METAR EKCH 120120Z 36001KT CAVOK 11/07 Q1020 NOSIG=
201805120050 METAR EKCH 120050Z 33002KT CAVOK 11/08 Q1020 NOSIG=
201805120020 METAR EKCH 120020Z 34003KT CAVOK 10/07 Q1020 NOSIG=
201805112350 METAR EKCH 112350Z 31001KT CAVOK 10/07 Q1020 NOSIG=
201805112320 METAR EKCH 112320Z 30003KT CAVOK 10/07 Q1020 NOSIG=
201805112250 METAR EKCH 112250Z 30003KT CAVOK 10/08 Q1020 NOSIG=
201805112220 METAR EKCH 112220Z 29002KT CAVOK 11/08 Q1020 NOSIG=
201805112150 METAR EKCH 112150Z VRB01KT CAVOK 11/08 Q1020 NOSIG=
201805112120 METAR EKCH 112120Z 36001KT CAVOK 10/08 Q1020 NOSIG=
201805112050 METAR EKCH 112050Z 36003KT CAVOK 11/08 Q1020 NOSIG=
201805112020 METAR EKCH 112020Z 01003KT CAVOK 13/09 Q1020 NOSIG=
201805111950 METAR EKCH 111950Z 01004KT CAVOK 13/08 Q1020 NOSIG=
201805111920 METAR EKCH 111920Z 36005KT 320V040 CAVOK 13/08 Q1020 NOSIG=
201805111850 METAR EKCH 111850Z 36005KT 330V030 CAVOK 13/08 Q1019 NOSIG=
201805111820 METAR EKCH 111820Z 01005KT 330V070 9999 FEW048 14/08 Q1019 NOSIG=
201805111750 METAR EKCH 111750Z 02007KT 9999 SCT049 14/08 Q1019 NOSIG=
201805111720 METAR EKCH 111720Z 01006KT 350V080 9999 BKN049 14/07 Q1019 NOSIG=
201805111650 METAR EKCH 111650Z 36006KT 330V140 9999 BKN049 14/08 Q1019 NOSIG=
201805111620 METAR EKCH 111620Z 36006KT 9999 BKN046 14/08 Q1019 NOSIG=
201805111550 METAR EKCH 111550Z 36007KT 340V050 9999 SCT046 BKN050 14/08 Q1019 NOSIG=
201805111520 METAR EKCH 111520Z 36008KT 340V040 9999 BKN045 14/08 Q1020 NOSIG=
201805111450 METAR EKCH 111450Z 36008KT 330V040 9999 FEW046 BKN066 14/08 Q1019 NOSIG=
201805111420 METAR EKCH 111420Z 01008KT 330V030 9999 FEW046 BKN058 14/08 Q1019 NOSIG=
201805111350 METAR EKCH 111350Z 36007KT 320V050 9999 FEW046 BKN056 15/08 Q1019 NOSIG=
201805111320 METAR EKCH 111320Z 01009KT 9999 SCT047 BKN080 15/08 Q1019 NOSIG=
201805111250 METAR EKCH 111250Z 01009KT 340V040 9999 FEW030 BKN055 15/10 Q1019 NOSIG=
201805111218 METAR EKCH 111218Z 01008KT 340V040 9999 FEW030 BKN055 14/08 Q1019 NOSIG=
201805111150 METAR EKCH 111150Z 02008KT 340V040 9999 FEW020 BKN060 14/08 Q1019 NOSIG=
201805111120 METAR EKCH 111120Z 01009KT 9999 FEW020 BKN091 15/10 Q1019 NOSIG=
201805111050 METAR EKCH 111050Z 02009KT 9999 FEW020 BKN094 13/10 Q1019 NOSIG=
201805111019 METAR EKCH 111019Z 03009KT 9999 FEW020 BKN250 13/10 Q1019 NOSIG=
201805110950 METAR EKCH 110950Z 02009KT 9999 FEW020 BKN250 14/10 Q1018 NOSIG=
201805110919 METAR EKCH 110919Z 03009KT 9999 FEW018 SCT250 15/10 Q1018 NOSIG=
201805110849 METAR EKCH 110849Z 32006KT 300V360 9999 FEW016 SCT250 15/10 Q1018 NOSIG=
201805110818 METAR EKCH 110818Z 33008KT 300V010 9999 FEW016 BKN250 15/11 Q1018 NOSIG=
201805110750 METAR EKCH 110750Z 33009KT 300V360 9999 FEW024 BKN250 14/10 Q1018 NOSIG=
201805110718 METAR EKCH 110718Z 30011KT 9999 SCT024 BKN041 14/10 Q1018 NOSIG=
201805110650 METAR EKCH 110650Z 32009KT 280V350 9999 BKN024 14/10 Q1018 NOSIG=
201805110620 METAR EKCH 110620Z 33007KT 300V360 9999 BKN024 BKN045 13/10 Q1018 NOSIG=
201805110550 METAR EKCH 110550Z 32006KT 280V360 9999 BKN020 BKN045 13/10 Q1018 NOSIG=
201805110518 METAR EKCH 110518Z 33007KT 300V010 9999 BKN020 13/10 Q1017 NOSIG=
201805110449 METAR EKCH 110449Z 34008KT 9999 BKN018 13/10 Q1017 NOSIG=
201805110420 METAR EKCH 110420Z 33010KT 300V010 9999 BKN012 12/10 Q1017 BECMG BKN030=
201805110350 METAR EKCH 110350Z 32012KT 9999 BKN014 13/11 Q1016 BECMG BKN030=
201805110320 METAR EKCH 110320Z 31010KT 9999 BKN010 13/11 Q1016 BECMG BKN015=
201805110250 METAR EKCH 110250Z 31009KT 270V340 6000 OVC006 13/12 Q1016 BECMG BKN010=
201805110220 METAR EKCH 110220Z 32009KT 290V350 4000 BR BKN003 14/13 Q1015 BECMG 9999 BKN008=
201805110150 METAR EKCH 110150Z 33009KT 300V360 3000 BR BKN003 14/14 Q1015 BECMG 5000 BKN008=
201805110120 METAR EKCH 110120Z 33010KT 4000 BR SCT004 BKN006 15/14 Q1014 BECMG 5000 BKN004=
201805110050 METAR EKCH 110050Z 33006KT 4500 BR BKN009 BKN013 16/15 Q1014 BECMG BKN003=
201805110020 METAR EKCH 110020Z 29003KT 4000 BR FEW003 BKN005 15/15 Q1014 BECMG BKN003=
# No short TAF reports from EKCH in databse.
###################################
#  large TAF from EKCH
###################################
201805122259 TAF EKCH 122259Z 1300/1324 VRB05KT 9999 BKN030 TEMPO 1300/1303 4000 BR TEMPO 1303/1305 1200 BR BKN002 BECMG 1310/1312 11010KT=
201805121657 TAF EKCH 121657Z 1218/1318 VRB05KT 9999 BKN030 BECMG 1310/1312 10010KT=
201805121112 TAF EKCH 121112Z 1212/1312 16008KT CAVOK BECMG 1216/1218 VRB03KT BECMG 1306/1309 08010KT=
201805120506 TAF EKCH 120506Z 1206/1306 01005KT CAVOK BECMG 1212/1215 13005KT BECMG 1220/1223 VRB03KT=
201805112252 TAF EKCH 112252Z 1200/1224 VRB03KT 9999 SCT040=
201805111707 TAF EKCH 111707Z 1118/1218 01008KT 9999 SCT040 BECMG 1119/1121 VRB02KT=
201805111056 TAF EKCH 111056Z 1112/1212 01010KT 9999 SCT025 BECMG 1119/1121 VRB02KT=
201805110510 TAF EKCH 110510Z 1106/1206 34010KT 9999 SCT025 BECMG 1119/1121 VRB02KT=
