##########################################################
# Query made at 05/23/2018 08:46:28 UTC
# Time interval: from 05/11/2018 00:00  to 05/12/2018 23:59  UTC
##########################################################
##########################################################
# EKEB, Esbjerg (Denmark)
# WMO index: 06080
# Latitude 55-32N. Longitude 008-34E. Altitude 30 m.
##########################################################
###################################
#  METAR/SPECI from EKEB
###################################
201805122350 METAR EKEB 122350Z AUTO 07004KT 9999NDV BKN074/// 09/06 Q1017=
201805122320 METAR EKEB 122320Z AUTO 06004KT 9999NDV BKN076/// 09/06 Q1018=
201805122250 METAR EKEB 122250Z AUTO 06002KT 9999NDV SCT076/// 08/05 Q1018=
201805122220 METAR EKEB 122220Z AUTO 09003KT 9999NDV NCD 09/05 Q1018=
201805122150 METAR EKEB 122150Z AUTO 08007KT 9999NDV NCD 10/05 Q1018=
201805122120 METAR EKEB 122120Z AUTO 09009KT 9999NDV NCD 11/04 Q1018=
201805122050 METAR EKEB 122050Z AUTO 08011KT 9999NDV NCD 12/04 Q1018=
201805122020 METAR EKEB 122020Z AUTO 09010KT 9999NDV SCT078/// 12/06 Q1018=
201805121950 METAR EKEB 121950Z AUTO 09009KT 9999NDV BKN079/// 13/07 Q1018=
201805121920 METAR EKEB 121920Z AUTO 08008KT 9999NDV BKN079/// 14/08 Q1018=
201805121850 METAR EKEB 121850Z AUTO 08008KT 9999NDV OVC079/// 15/09 Q1018=
201805121820 METAR EKEB 121820Z AUTO 09010KT 9999NDV BKN079/// 16/09 Q1017=
201805121750 METAR EKEB 121750Z AUTO 10008KT 9999NDV NCD 17/11 Q1017=
201805121720 METAR EKEB 121720Z AUTO 10007KT 9999NDV FEW080/// 17/11 Q1017=
201805121650 METAR EKEB 121650Z AUTO 11007KT 9999NDV BKN079/// 18/11 Q1017=
201805121620 METAR EKEB 121620Z AUTO 10008KT 9999NDV FEW044/// BKN076/// 18/10 Q1017=
201805121550 METAR EKEB 121550Z AUTO 12007KT 9999NDV BKN064/// 18/10 Q1017=
201805121520 METAR EKEB 121520Z AUTO 14011KT 9999NDV BKN075/// 18/09 Q1018=
201805121450 METAR EKEB 121450Z AUTO 13013KT 9999NDV BKN042/// 18/10 Q1017=
201805121420 METAR EKEB 121420Z AUTO 14001KT 9999NDV BKN039/// 18/10 Q1018=
201805121350 METAR EKEB 121350Z AUTO 12009KT 9999NDV BKN045/// 17/10 Q1018=
201805121320 METAR EKEB 121320Z AUTO 11007KT 9999NDV BKN046/// 18/09 Q1018=
201805121250 METAR EKEB 121250Z AUTO 09007KT 060V120 9999NDV FEW036/// BKN071/// 18/11 Q1018=
201805121220 METAR EKEB 121220Z AUTO 09009KT 070V130 9999NDV FEW032/// BKN046/// 19/11 Q1018=
201805121150 METAR EKEB 121150Z AUTO 09009KT 9999NDV FEW030/// 19/11 Q1019=
201805121120 METAR EKEB 121120Z AUTO 09008KT 060V120 9999NDV FEW030/// 18/11 Q1019=
201805121050 METAR EKEB 121050Z AUTO 09010KT 9999NDV FEW031/// 17/10 Q1019=
201805121020 METAR EKEB 121020Z AUTO 09009KT 9999NDV FEW039/// BKN087/// 17/10 Q1019=
201805120950 METAR EKEB 120950Z AUTO 09009KT 9999NDV BKN085/// 16/11 Q1019=
201805120920 METAR EKEB 120920Z AUTO 07006KT 9999NDV SCT045/// BKN074/// BKN083/// 14/10 Q1020=
201805120850 METAR EKEB 120850Z AUTO 08005KT 9999NDV SCT046/// BKN071/// 13/09 Q1020=
201805120820 METAR EKEB 120820Z AUTO 09006KT 9999NDV BKN045/// 12/09 Q1020=
201805120750 METAR EKEB 120750Z AUTO 09006KT 9999NDV OVC042/// 12/09 Q1020=
201805120720 METAR EKEB 120720Z AUTO 09006KT 9999NDV BKN043/// 12/08 Q1020=
201805120650 METAR EKEB 120650Z AUTO 10005KT 9999NDV BKN043/// 11/08 Q1020=
201805120620 METAR EKEB 120620Z AUTO 10005KT 9999NDV BKN052/// BKN079/// 11/09 Q1020=
201805120550 METAR EKEB 120550Z AUTO 10006KT 9999NDV BKN058/// BKN083/// 11/08 Q1019=
201805120520 METAR EKEB 120520Z AUTO 10005KT 9999NDV FEW065/// BKN082/// 10/08 Q1019=
201805120450 METAR EKEB 120450Z AUTO 09005KT 9999NDV BKN081/// 08/07 Q1019=
201805120420 METAR EKEB 120420Z AUTO 11002KT 9999NDV SCT081/// 07/06 Q1019=
201805120350 METAR EKEB 120350Z AUTO 12004KT 9999NDV NCD 06/05 Q1019=
201805120320 METAR EKEB 120320Z AUTO 11001KT 9999NDV NCD 06/05 Q1019=
201805120250 METAR EKEB 120250Z AUTO 11001KT 9999NDV NCD 06/04 Q1019=
201805120220 METAR EKEB 120220Z AUTO 13001KT 9999NDV NCD 06/05 Q1019=
201805120150 METAR EKEB 120150Z AUTO 11002KT 9999NDV NCD 06/05 Q1019=
201805120120 METAR EKEB 120120Z AUTO 13002KT 9999NDV NCD 07/06 Q1019=
201805120050 METAR EKEB 120050Z AUTO 11005KT 9999NDV NCD 06/05 Q1019=
201805120020 METAR EKEB 120020Z AUTO 10005KT 9999NDV NCD 07/05 Q1019=
201805112350 METAR EKEB 112350Z AUTO 08006KT 9999NDV NCD 08/05 Q1020=
201805112320 METAR EKEB 112320Z AUTO 07005KT 9999NDV NCD 08/06 Q1020=
201805112250 METAR EKEB 112250Z AUTO 07003KT 9999NDV NCD 07/05 Q1020=
201805112220 METAR EKEB 112220Z AUTO 05003KT 9999NDV NCD 08/06 Q1020=
201805112150 METAR EKEB 112150Z AUTO 04003KT 9999NDV NCD 09/06 Q1020=
201805112120 METAR EKEB 112120Z AUTO 03004KT 9999NDV NCD 09/06 Q1020=
201805112050 METAR EKEB 112050Z AUTO 02004KT 9999NDV NCD 09/06 Q1020=
201805112020 METAR EKEB 112020Z AUTO 01003KT 9999NDV NCD 09/06 Q1020=
201805111950 METAR EKEB 111950Z AUTO 34004KT 9999NDV NCD 10/06 Q1020=
201805111920 METAR EKEB 111920Z AUTO 32003KT 9999NDV NCD 11/06 Q1020=
201805111850 METAR EKEB 111850Z AUTO 31004KT 9999NDV NCD 12/05 Q1020=
201805111820 METAR EKEB 111820Z AUTO 32005KT 9999NDV NCD 13/05 Q1020=
201805111750 METAR EKEB 111750Z AUTO 32005KT 9999NDV NCD 14/05 Q1020=
201805111720 METAR EKEB 111720Z AUTO 31006KT 9999NDV NCD 14/06 Q1020=
201805111650 METAR EKEB 111650Z AUTO 30007KT 270V330 9999NDV NCD 14/06 Q1020=
201805111620 METAR EKEB 111620Z AUTO 31007KT 280V340 9999NDV NCD 15/06 Q1020=
201805111550 METAR EKEB 111550Z AUTO 30008KT 9999NDV NCD 15/06 Q1020=
201805111520 METAR EKEB 111520Z AUTO 30007KT 250V330 9999NDV NCD 16/06 Q1020=
201805111450 METAR EKEB 111450Z AUTO 26006KT 9999NDV NCD 16/06 Q1020=
201805111420 METAR EKEB 111420Z AUTO 33006KT 270V010 9999NDV NCD 16/04 Q1020=
201805111350 METAR EKEB 111350Z AUTO 30005KT 260V340 9999NDV NCD 16/05 Q1020=
201805111320 METAR EKEB 111320Z AUTO VRB03KT 9999NDV NCD 15/06 Q1020=
201805111250 METAR EKEB 111250Z AUTO 29004KT 210V010 9999NDV NCD 15/05 Q1020=
201805111220 METAR EKEB 111220Z AUTO 31007KT 280V350 9999NDV NCD 15/06 Q1020=
201805111150 METAR EKEB 111150Z AUTO 31006KT 260V360 9999NDV NCD 14/06 Q1020=
201805111120 METAR EKEB 111120Z AUTO 30007KT 270V340 9999NDV NCD 14/07 Q1020=
201805111050 METAR EKEB 111050Z AUTO 29007KT 260V330 9999NDV NCD 15/06 Q1021=
201805111020 METAR EKEB 111020Z AUTO 29006KT 240V320 9999NDV NCD 14/05 Q1021=
201805110950 METAR EKEB 110950Z AUTO 28007KT 240V330 9999NDV NCD 14/06 Q1020=
201805110920 METAR EKEB 110920Z AUTO 30007KT 270V340 9999NDV NCD 13/05 Q1020=
201805110850 METAR EKEB 110850Z AUTO 29006KT 260V330 9999NDV NCD 12/06 Q1020=
201805110820 METAR EKEB 110820Z AUTO 31006KT 280V340 9999NDV NCD 12/07 Q1020=
201805110750 METAR EKEB 110750Z AUTO 30007KT 270V340 9999NDV FEW016/// 11/07 Q1020=
201805110720 METAR EKEB 110720Z AUTO 31007KT 280V340 9999NDV FEW013/// FEW014/// 11/08 Q1020=
201805110650 METAR EKEB 110650Z AUTO 29007KT 9999NDV FEW010/// 10/07 Q1020=
201805110620 METAR EKEB 110620Z AUTO 29008KT 9999NDV BKN008/// 10/08 Q1020=
201805110550 METAR EKEB 110550Z AUTO 30008KT 9999NDV BKN006/// 09/08 Q1020=
201805110520 METAR EKEB 110520Z AUTO 30008KT 9999NDV FEW006/// 09/08 Q1020=
201805110450 METAR EKEB 110450Z AUTO 29006KT 9999NDV NCD 08/07 Q1020=
201805110420 METAR EKEB 110420Z AUTO 29006KT 8000NDV NCD 07/07 Q1019=
201805110350 METAR EKEB 110350Z AUTO 29005KT 9999NDV FEW110/// 07/06 Q1019=
201805110320 METAR EKEB 110320Z AUTO 30006KT 9999NDV SCT110/// 08/07 Q1019=
201805110250 METAR EKEB 110250Z AUTO 30007KT 9999NDV BKN110/// 08/07 Q1018=
201805110220 METAR EKEB 110220Z AUTO 31007KT 9999NDV OVC100/// 09/08 Q1018=
201805110150 METAR EKEB 110150Z AUTO 30007KT 9999NDV SCT011/// BKN100/// 09/08 Q1018=
201805110120 METAR EKEB 110120Z AUTO 31010KT 9999NDV BKN010/// BKN110/// 10/08 Q1018=
201805110050 METAR EKEB 110050Z AUTO 31008KT 9999NDV FEW011/// BKN100/// 09/08 Q1018=
201805110020 METAR EKEB 110020Z AUTO 31009KT 9999NDV BKN097/// 10/08 Q1018=
###################################
#  short TAF from EKEB
###################################
201805121727 TAF EKEB 121727Z 1218/1222 11008KT 9999 FEW040=
201805121422 TAF EKEB 121422Z 1215/1222 13008KT 9999 SCT040=
201805121131 TAF EKEB 121131Z 1212/1221 10008KT 9999 FEW040=
201805120757 TAF EKEB 120757Z 1209/1218 10008KT 9999 SCT045=
201805120508 TAF EKEB 120508Z 1206/1215 08005KT 9999 SCT045=
201805120253 TAF EKEB 120253Z 1203/1212 08005KT 9999 SCT045=
201805111806 TAF AMD EKEB 111806Z 1118/1123 33005KT CAVOK=
201805111721 TAF EKEB 111721Z 1118/1122 33005KT CAVOK=
201805111422 TAF EKEB 111422Z 1115/1122 33005KT CAVOK=
201805111122 TAF EKEB 111122Z 1112/1121 29008KT 9999 FEW030=
201805110820 TAF EKEB 110820Z 1109/1118 29008KT 9999 FEW030=
201805110638 TAF AMD EKEB 110638Z 1106/1115 29008KT 9999 BKN008 BECMG 1106/1108 FEW030=
201805110521 TAF EKEB 110521Z 1106/1115 29008KT 9999 FEW015=
201805110251 TAF EKEB 110251Z 1103/1112 30008KT 9999 FEW015=
# No large TAF reports from EKEB in databse.
