##########################################################
# Query made at 05/23/2018 08:40:35 UTC
# Time interval: from 05/11/2018 00:00  to 05/12/2018 23:59  UTC
##########################################################
##########################################################
# EKKA, Karup (Denmark)
# WMO index: 06060
# Latitude 56-18N. Longitude 009-07E. Altitude 52 m.
##########################################################
###################################
#  METAR/SPECI from EKKA
###################################
201805122350 METAR EKKA 122350Z AUTO 07004KT 9999NDV BKN054/// 13/08 Q1018=
201805122320 METAR EKKA 122320Z AUTO 09004KT 9999NDV OVC075/// 13/08 Q1018=
201805122250 METAR EKKA 122250Z AUTO 08004KT 9999NDV OVC074/// 13/08 Q1018=
201805122220 METAR EKKA 122220Z AUTO 08004KT 9999NDV BKN077/// 13/07 Q1018=
201805122150 METAR EKKA 122150Z AUTO 08006KT 9999NDV BKN079/// 14/07 Q1018=
201805122120 METAR EKKA 122120Z AUTO 08005KT 9999NDV BKN080/// 14/07 Q1018=
201805122050 METAR EKKA 122050Z AUTO 07004KT 9999NDV BKN079/// 13/08 Q1018=
201805122020 METAR EKKA 122020Z AUTO 08005KT 9999NDV SCT080/// 14/08 Q1018=
201805121950 METAR EKKA 121950Z AUTO 08005KT 9999NDV BKN079/// 15/08 Q1018=
201805121920 METAR EKKA 121920Z AUTO 08006KT 9999NDV BKN079/// 16/09 Q1018=
201805121850 METAR EKKA 121850Z AUTO 09004KT 9999NDV SCT080/// 17/07 Q1018=
201805121820 METAR EKKA 121820Z AUTO 12004KT 9999NDV BKN080/// 18/07 Q1018=
201805121750 METAR EKKA 121750Z AUTO 11007KT 9999NDV BKN081/// 19/07 Q1018=
201805121720 METAR EKKA 121720Z AUTO 11008KT 9999NDV NCD 19/07 Q1018=
201805121650 METAR EKKA 121650Z AUTO 11007KT 080V140 9999NDV FEW081/// 19/07 Q1018=
201805121620 METAR EKKA 121620Z AUTO 11008KT 9999NDV FEW081/// 19/08 Q1018=
201805121550 METAR EKKA 121550Z AUTO 09009KT 9999NDV BKN057/// 19/08 Q1018=
201805121520 METAR EKKA 121520Z AUTO 08009KT 9999NDV BKN053/// 20/08 Q1018=
201805121450 METAR EKKA 121450Z AUTO 08007KT 050V120 9999NDV BKN054/// 20/08 Q1018=
201805121420 METAR EKKA 121420Z AUTO 09006KT 060V120 9999NDV FEW050/// SCT066/// 19/08 Q1018=
201805121350 METAR EKKA 121350Z AUTO 09008KT 060V130 9999NDV FEW050/// 19/08 Q1019=
201805121320 METAR EKKA 121320Z AUTO 07008KT 9999NDV FEW051/// 20/08 Q1019=
201805121250 METAR EKKA 121250Z AUTO 08002KT 9999NDV SCT086/// 19/08 Q1019=
201805121220 METAR EKKA 121220Z AUTO 10004KT 060V130 9999NDV BKN069/// 19/08 Q1019=
201805121150 METAR EKKA 121150Z AUTO 13004KT 100V200 9999NDV SCT042/// BKN060/// 18/08 Q1020=
201805121120 METAR EKKA 121120Z AUTO VRB03KT 9999NDV BKN057/// 18/08 Q1020=
201805121050 METAR EKKA 121050Z AUTO 13005KT 100V170 9999NDV FEW041/// BKN057/// 18/08 Q1020=
201805121020 METAR EKKA 121020Z AUTO 17004KT 080V220 9999NDV FEW039/// BKN066/// 18/07 Q1020=
201805120950 METAR EKKA 120950Z AUTO 17002KT 9999NDV FEW036/// SCT071/// BKN086/// 18/08 Q1020=
201805120920 METAR EKKA 120920Z AUTO 14005KT 070V180 9999NDV SCT085/// 18/09 Q1020=
201805120850 METAR EKKA 120850Z AUTO VRB03KT 9999NDV SCT084/// 17/08 Q1020=
201805120820 METAR EKKA 120820Z AUTO 17004KT 110V220 9999NDV FEW084/// 17/08 Q1020=
201805120750 METAR EKKA 120750Z AUTO 14003KT 9999NDV BKN083/// 16/08 Q1020=
201805120720 METAR EKKA 120720Z AUTO 15004KT 130V210 9999NDV SCT083/// 16/08 Q1020=
201805120650 METAR EKKA 120650Z AUTO 13005KT 9999NDV NCD 15/09 Q1020=
201805120620 METAR EKKA 120620Z AUTO 14004KT 100V170 9999NDV NCD 13/09 Q1020=
201805120550 METAR EKKA 120550Z AUTO 13004KT 9999NDV NCD 12/09 Q1020=
201805120520 METAR EKKA 120520Z AUTO 12004KT 9999NDV NCD 10/08 Q1020=
201805120450 METAR EKKA 120450Z AUTO 12003KT 9999NDV NCD 08/06 Q1020=
201805120420 METAR EKKA 120420Z AUTO 12003KT 9999NDV NCD 07/05 Q1020=
201805120350 METAR EKKA 120350Z 11003KT 9999 MIFG NSC 05/04 Q1020=
201805120320 METAR EKKA 120320Z 00000KT 9999 MIFG NSC 05/04 Q1019=
201805120250 METAR EKKA 120250Z 00000KT 9999 MIFG NSC 05/03 Q1019=
201805120220 METAR EKKA 120220Z 00000KT 9999 MIFG NSC 06/04 Q1019=
201805120200 SPECI EKKA 120200Z 00000KT 9999 MIFG NSC 06/05 Q1019 RMK FEW220=
201805120150 METAR EKKA 120150Z AUTO 00000KT 9999NDV NCD 06/05 Q1019=
201805120120 METAR EKKA 120120Z AUTO 00000KT 9999NDV NCD 06/05 Q1019=
201805120050 METAR EKKA 120050Z AUTO 00000KT 9999NDV NCD 06/05 Q1020=
201805120020 METAR EKKA 120020Z AUTO 00000KT 9999NDV NCD 05/03 Q1020=
201805112350 METAR EKKA 112350Z AUTO 08001KT 9999NDV NCD 06/04 Q1020=
201805112320 METAR EKKA 112320Z AUTO 09001KT 9999NDV NCD 06/04 Q1020=
201805112250 METAR EKKA 112250Z AUTO 00000KT 9999NDV NCD 07/05 Q1020=
201805112220 METAR EKKA 112220Z AUTO 00000KT 9999NDV NCD 07/05 Q1020=
201805112150 METAR EKKA 112150Z AUTO 00000KT 9999NDV NCD 07/04 Q1020=
201805112120 METAR EKKA 112120Z AUTO 00000KT 9999NDV NCD 07/04 Q1020=
201805112050 METAR EKKA 112050Z AUTO 00000KT 9999NDV NCD 08/05 Q1020=
201805112020 METAR EKKA 112020Z AUTO 00000KT 9999NDV NCD 09/05 Q1020=
201805111950 METAR EKKA 111950Z AUTO 33002KT 9999NDV NCD 10/05 Q1020=
201805111920 METAR EKKA 111920Z AUTO 33004KT 9999NDV NCD 11/05 Q1020=
201805111850 METAR EKKA 111850Z AUTO 33004KT 9999NDV NCD 12/05 Q1020=
201805111820 METAR EKKA 111820Z AUTO 33006KT 9999NDV NCD 13/06 Q1019=
201805111750 METAR EKKA 111750Z AUTO 33008KT 9999NDV NCD 14/06 Q1020=
201805111720 METAR EKKA 111720Z AUTO 32008KT 9999NDV NCD 14/07 Q1019=
201805111650 METAR EKKA 111650Z AUTO 31007KT 270V340 9999NDV NCD 15/07 Q1019=
201805111620 METAR EKKA 111620Z AUTO 34005KT 300V020 9999NDV NCD 16/07 Q1019=
201805111550 METAR EKKA 111550Z AUTO 01006KT 340V040 9999NDV NCD 16/06 Q1019=
201805111520 METAR EKKA 111520Z AUTO 33006KT 280V030 9999NDV SCT037/// 16/07 Q1020=
201805111450 METAR EKKA 111450Z AUTO 30005KT 250V020 9999NDV SCT035/// 16/07 Q1020=
201805111420 METAR EKKA 111420Z AUTO 29004G17KT 200V310 9999NDV FEW035/// 17/07 Q1020=
201805111350 METAR EKKA 111350Z AUTO 26006KT 220V290 9999NDV NCD 16/05 Q1020=
201805111320 METAR EKKA 111320Z AUTO 30007KT 250V340 9999NDV NCD 16/06 Q1020=
201805111250 METAR EKKA 111250Z AUTO 31008KT 260V350 9999NDV NCD 16/07 Q1020=
201805111220 METAR EKKA 111220Z AUTO 32008KT 290V360 9999NDV NCD 16/07 Q1020=
201805111150 METAR EKKA 111150Z AUTO 29008KT 260V330 9999NDV FEW033/// 15/07 Q1020 NOSIG=
201805111120 METAR EKKA 111120Z AUTO 27006KT 220V310 9999NDV FEW031/// 15/08 Q1020 NOSIG=
201805111050 METAR EKKA 111050Z AUTO 26008KT 220V290 9999NDV NCD 15/07 Q1020 NOSIG=
201805111020 METAR EKKA 111020Z AUTO 25006KT 220V310 9999NDV NCD 14/07 Q1020 NOSIG=
201805110950 METAR EKKA 110950Z AUTO 27008KT 220V320 9999NDV NCD 14/07 Q1019 NOSIG=
201805110920 METAR EKKA 110920Z AUTO 27007KT 230V320 9999NDV NCD 14/06 Q1019 NOSIG=
201805110850 METAR EKKA 110850Z AUTO 28009KT 250V310 9999NDV NCD 13/07 Q1019 NOSIG=
201805110820 METAR EKKA 110820Z AUTO 26008KT 240V300 9999NDV NCD 13/08 Q1019 NOSIG=
201805110750 METAR EKKA 110750Z AUTO 27009KT 9999NDV NCD 12/08 Q1019 NOSIG=
201805110720 METAR EKKA 110720Z AUTO 26008KT 9999NDV NCD 12/08 Q1019 NOSIG=
201805110650 METAR EKKA 110650Z AUTO 26007KT 240V300 9999NDV NCD 11/07 Q1019 NOSIG=
201805110620 METAR EKKA 110620Z AUTO 27007KT 240V300 9999NDV NCD 10/07 Q1019 NOSIG=
201805110550 METAR EKKA 110550Z AUTO 27008KT 9999NDV NCD 09/07 Q1019 NOSIG=
201805110520 METAR EKKA 110520Z AUTO 27008KT 9999NDV NCD 09/08 Q1019 NOSIG=
201805110450 METAR EKKA 110450Z AUTO 27005KT 9999NDV NCD 08/07 Q1019 NOSIG=
201805110420 METAR EKKA 110420Z AUTO 27006KT 9999NDV NCD 08/07 Q1018=
201805110350 METAR EKKA 110350Z AUTO 27005KT 9999NDV FEW100/// 07/07 Q1018=
201805110320 METAR EKKA 110320Z AUTO 28005KT 9999NDV FEW082/// SCT100/// 08/07 Q1018=
201805110250 METAR EKKA 110250Z AUTO 27007KT 9999NDV BKN097/// 09/08 Q1018=
201805110220 METAR EKKA 110220Z AUTO 27008KT 9999NDV FEW007/// BKN097/// BKN140/// 09/08 Q1017=
201805110150 METAR EKKA 110150Z AUTO 27006KT 9999NDV BKN092/// BKN140/// 09/08 Q1017=
201805110120 METAR EKKA 110120Z AUTO 28009KT 9999NDV FEW010/// BKN092/// 10/09 Q1017=
201805110050 METAR EKKA 110050Z AUTO 28007KT 9999NDV BKN010/// BKN093/// 09/09 Q1016=
201805110026 SPECI EKKA 110026Z AUTO 28007KT 9999NDV BKN010/// BKN094/// 09/09 Q1016=
201805110020 METAR EKKA 110020Z AUTO 28007KT 9999NDV SCT010/// BKN094/// 09/09 Q1016=
# No short TAF reports from EKKA in databse.
###################################
#  large TAF from EKKA
###################################
201805122325 TAF EKKA 122325Z 1300/1324 08005KT 9999 BKN080 TEMPO 1310/1316 10012G22KT=
201805122022 TAF EKKA 122022Z 1221/1318 08008KT 9999 SCT080 TEMPO 1310/1316 10012G22KT=
201805121722 TAF EKKA 121722Z 1218/1318 10008KT 9999 FEW080 TEMPO 1310/1316 10012G22KT=
201805121407 TAF EKKA 121407Z 1215/1312 10008KT 9999 SCT060=
201805121121 TAF EKKA 121121Z 1212/1312 10005KT 9999 BKN060=
201805120817 TAF EKKA 120817Z 1209/1306 10005KT 9999 FEW030=
201805120534 TAF EKKA 120534Z 1206/1306 12005KT 9999 FEW030=
201805120225 TAF EKKA 120225Z 1203/1224 VRB03KT 9999 FEW030 PROB40 1203/1205 2000 MIFG=
201805112321 TAF EKKA 112321Z 1200/1224 VRB03KT 9999 FEW030 PROB40 1200/1204 2000 MIFG BECMG 1214/1217 11005KT=
201805112020 TAF EKKA 112020Z 1121/1218 VRB03KT 9999 FEW030 PROB40 1123/1204 2000 MIFG BECMG 1214/1217 11005KT=
201805111722 TAF EKKA 111722Z 1118/1218 29008KT 9999 FEW030 BECMG 1118/1120 VRB03KT PROB40 1123/1204 2000 MIFG=
201805111418 TAF EKKA 111418Z 1115/1212 27008KT 9999 FEW030 BECMG 1117/1120 VRB03KT PROB40 1123/1204 2000 MIFG=
201805111122 TAF EKKA 111122Z 1112/1212 28008KT 9999 FEW030 BECMG 1117/1120 VRB03KT PROB40 1123/1204 2000 MIFG=
201805110809 TAF EKKA 110809Z 1109/1206 29010KT 9999 FEW030 BECMG 1117/1120 VRB03KT PROB40 1123/1204 2000 MIFG=
201805110522 TAF EKKA 110522Z 1106/1206 29008KT 9999 FEW030 BECMG 1120/1123 VRB03KT TEMPO 1123/1205 2000 MIFG BR=
201805110226 TAF EKKA 110226Z 1103/1124 29008KT 9999 FEW030 SCT100 TEMPO 1103/1106 4000 BR BKN006 TEMPO 1122/1124 VRB03KT 4000 MIFG BR=
