##########################################################
# Query made at 05/23/2018 08:49:07 UTC
# Time interval: from 05/11/2018 00:00  to 05/12/2018 23:59  UTC
##########################################################
##########################################################
# EKOD, Odense / Beldringe (Denmark)
# WMO index: 06120
# Latitude 55-29N. Longitude 010-20E. Altitude 17 m.
##########################################################
###################################
#  METAR/SPECI from EKOD
###################################
201805122353 METAR EKOD 122353Z NIL=
201805122323 METAR EKOD 122323Z NIL=
201805122253 METAR EKOD 122253Z NIL=
201805122223 METAR EKOD 122223Z NIL=
201805122153 METAR EKOD 122153Z NIL=
201805122123 METAR EKOD 122123Z NIL=
201805122053 METAR EKOD 122053Z NIL=
201805122023 METAR EKOD 122023Z NIL=
201805121953 METAR EKOD 121953Z NIL=
201805121923 METAR EKOD 121923Z NIL=
201805121853 METAR EKOD 121853Z NIL=
201805121823 METAR EKOD 121823Z NIL=
201805121753 METAR EKOD 121753Z NIL=
201805121723 METAR EKOD 121723Z NIL=
201805121653 METAR EKOD 121653Z NIL=
201805121623 METAR EKOD 121623Z NIL=
201805121553 METAR EKOD 121553Z NIL=
201805121523 METAR EKOD 121523Z NIL=
201805121450 METAR EKOD 121450Z 05009KT 9999 FEW030 BKN080 17/08 Q1019=
201805121423 METAR EKOD 121423Z NIL=
201805121350 METAR EKOD 121350Z 05008KT 020V080 9999 FEW030 SCT080 18/08 Q1019=
201805121323 METAR EKOD 121323Z NIL=
201805121250 METAR EKOD 121250Z 06006KT 010V100 9999 FEW030 18/07 Q1019=
201805121223 METAR EKOD 121223Z NIL=
201805121150 METAR EKOD 121150Z 07008KT 040V110 9999 FEW030 SCT080 17/07 Q1020=
201805121123 METAR EKOD 121123Z NIL=
201805121050 METAR EKOD 121050Z 07008KT 030V100 CAVOK 17/08 Q1020=
201805121023 METAR EKOD 121023Z NIL=
201805120950 METAR EKOD 120950Z 08009KT CAVOK 16/09 Q1020=
201805120923 METAR EKOD 120923Z NIL=
201805120850 METAR EKOD 120850Z 08007KT 020V120 CAVOK 17/10 Q1020=
201805120823 METAR EKOD 120823Z NIL=
201805120750 METAR EKOD 120750Z 07003KT CAVOK 14/11 Q1020=
201805120720 METAR EKOD 120720Z 08004KT 9999 FEW046 BKN080 13/11 Q1020=
201805120650 METAR EKOD 120650Z 06003KT 9999 FEW046 BKN080 12/11 Q1020=
201805120623 METAR EKOD 120623Z NIL=
201805120620 METAR EKOD 120620Z 06002KT 9999 FEW046 BKN080 12/11 Q1020=
201805120553 METAR EKOD 120553Z NIL=
201805120523 METAR EKOD 120523Z NIL=
201805120453 METAR EKOD 120453Z NIL=
201805120423 METAR EKOD 120423Z NIL=
201805120353 METAR EKOD 120353Z NIL=
201805120323 METAR EKOD 120323Z NIL=
201805120253 METAR EKOD 120253Z NIL=
201805120223 METAR EKOD 120223Z NIL=
201805120153 METAR EKOD 120153Z NIL=
201805120123 METAR EKOD 120123Z NIL=
201805120053 METAR EKOD 120053Z NIL=
201805120023 METAR EKOD 120023Z NIL=
201805112353 METAR EKOD 112353Z NIL=
201805112323 METAR EKOD 112323Z NIL=
201805112253 METAR EKOD 112253Z NIL=
201805112223 METAR EKOD 112223Z NIL=
201805112153 METAR EKOD 112153Z NIL=
201805112123 METAR EKOD 112123Z NIL=
201805112053 METAR EKOD 112053Z NIL=
201805112023 METAR EKOD 112023Z NIL=
201805111953 METAR EKOD 111953Z NIL=
201805111923 METAR EKOD 111923Z NIL=
201805111853 METAR EKOD 111853Z NIL=
201805111823 METAR EKOD 111823Z NIL=
201805111753 METAR EKOD 111753Z NIL=
201805111723 METAR EKOD 111723Z NIL=
201805111650 METAR EKOD 111650Z 11005KT 9999 FEW046 16/07 Q1019=
201805111623 METAR EKOD 111623Z NIL=
201805111550 METAR EKOD 111550Z 34004KT 270V010 9999 FEW048 17/05 Q1019=
201805111523 METAR EKOD 111523Z NIL=
201805111450 METAR EKOD 111450Z 34004KT 290V020 9999 FEW047 SCT090 17/05 Q1020=
201805111423 METAR EKOD 111423Z NIL=
201805111350 METAR EKOD 111350Z 31004KT 270V030 CAVOK 17/05 Q1020=
201805111323 METAR EKOD 111323Z NIL=
201805111250 METAR EKOD 111250Z 31007KT 280V350 CAVOK 16/05 Q1020=
201805111223 METAR EKOD 111223Z NIL=
201805111150 METAR EKOD 111150Z 28005KT 230V340 CAVOK 16/07 Q1020=
201805111123 METAR EKOD 111123Z NIL=
201805111050 METAR EKOD 111050Z 30005KT 250V360 CAVOK 15/07 Q1020=
201805111023 METAR EKOD 111023Z NIL=
201805111020 METAR EKOD 111020Z 31007KT 270V340 CAVOK 15/07 Q1020=
201805110950 METAR EKOD 110950Z 30008KT 260V330 CAVOK 14/06 Q1020=
201805110923 METAR EKOD 110923Z NIL=
201805110850 METAR EKOD 110850Z 28009KT 260V320 CAVOK 12/07 Q1020=
201805110823 METAR EKOD 110823Z NIL=
201805110750 METAR EKOD 110750Z 28009KT 9999 FEW010 SCT120 11/08 Q1020=
201805110720 METAR EKOD 110720Z 29008KT 9999 FEW010 SCT140 11/09 Q1020=
201805110650 METAR EKOD 110650Z 29008KT 250V320 9999 FEW010 BKN140 11/09 Q1020=
201805110620 METAR EKOD 110620Z 29009KT 260V320 9999 FEW011 BKN090 11/09 Q1020=
201805110550 METAR EKOD 110550Z 30009KT 9999 FEW011 BKN100 10/09 Q1019=
201805110523 METAR EKOD 110523Z NIL=
201805110520 METAR EKOD 110520Z 30008KT 270V330 9999 FEW011 BKN100 10/09 Q1019=
201805110453 METAR EKOD 110453Z NIL=
201805110423 METAR EKOD 110423Z NIL=
201805110353 METAR EKOD 110353Z NIL=
201805110323 METAR EKOD 110323Z NIL=
201805110253 METAR EKOD 110253Z NIL=
201805110223 METAR EKOD 110223Z NIL=
201805110153 METAR EKOD 110153Z NIL=
201805110123 METAR EKOD 110123Z NIL=
201805110053 METAR EKOD 110053Z NIL=
201805110023 METAR EKOD 110023Z NIL=
###################################
#  short TAF from EKOD
###################################
201805121157 TAF EKOD 121157Z 1212/1216 07008KT 9999 FEW045=
201805120846 TAF EKOD 120846Z 1209/1216 08006KT 9999 FEW045=
201805120739 TAF EKOD 120739Z 1208/1215 08006KT 9999 FEW045=
201805111150 TAF EKOD 111150Z 1112/1118 30005KT 9999 SCT030=
201805110854 TAF EKOD 110854Z 1109/1118 30008KT 9999 SCT030=
201805110650 TAF EKOD 110650Z 1107/1115 30008KT 9999 SCT030=
# No large TAF reports from EKOD in databse.
