##########################################################
# Query made at 05/23/2018 08:50:41 UTC
# Time interval: from 05/11/2018 00:00  to 05/12/2018 23:59  UTC
##########################################################
##########################################################
# EKRK, Koebenhavn / Roskilde (Denmark)
# WMO index: 06170
# Latitude 55-35N. Longitude 012-08E. Altitude 44 m.
##########################################################
###################################
#  METAR/SPECI from EKRK
###################################
201805122350 METAR EKRK 122350Z AUTO 11001KT 4500NDV BR NCD 09/08 Q1019=
201805122320 METAR EKRK 122320Z AUTO 00000KT 8000NDV NCD 09/08 Q1019=
201805122250 METAR EKRK 122250Z AUTO 00000KT 9999NDV NCD 09/08 Q1019=
201805122220 METAR EKRK 122220Z AUTO 08002KT 9999NDV NCD 10/08 Q1019=
201805122150 METAR EKRK 122150Z AUTO 11002KT 9999NDV NCD 10/08 Q1019=
201805122120 METAR EKRK 122120Z AUTO 11004KT 9999NDV NCD 10/07 Q1019=
201805122050 METAR EKRK 122050Z AUTO 09003KT 9999NDV NCD 11/08 Q1019=
201805122020 METAR EKRK 122020Z AUTO 11002KT 9999NDV NCD 11/07 Q1019=
201805121950 METAR EKRK 121950Z AUTO 12004KT 9999NDV SCT025/// 12/07 Q1019=
201805121920 METAR EKRK 121920Z AUTO 12005KT 9999NDV BKN024/// OVC028/// 13/07 Q1019=
201805121850 METAR EKRK 121850Z AUTO 12005KT 9999NDV BKN028/// BKN032/// 13/07 Q1019=
201805121820 METAR EKRK 121820Z AUTO 14004KT 9999NDV SCT028/// BKN034/// 14/08 Q1018=
201805121750 METAR EKRK 121750Z AUTO 16005KT 9999NDV BKN032/// 15/07 Q1018=
201805121720 METAR EKRK 121720Z AUTO 11005KT 9999NDV SCT032/// BKN039/// 14/09 Q1018=
201805121650 METAR EKRK 121650Z AUTO 13006KT 9999NDV FEW035/// BKN040/// 14/09 Q1019=
201805121620 METAR EKRK 121620Z AUTO 13007KT 9999NDV SCT035/// BKN041/// 15/10 Q1019=
201805121550 METAR EKRK 121550Z AUTO 14004KT 9999NDV BKN039/// 16/09 Q1019=
201805121520 METAR EKRK 121520Z AUTO 13007KT 9999NDV BKN038/// BKN044/// 16/10 Q1019=
201805121450 METAR EKRK 121450Z AUTO 13008KT 9999NDV BKN040/// 17/10 Q1019=
201805121420 METAR EKRK 121420Z AUTO 13008KT 9999NDV BKN041/// 17/10 Q1019=
201805121350 METAR EKRK 121350Z AUTO 12009KT 9999NDV SCT045/// 17/09 Q1019=
201805121320 METAR EKRK 121320Z AUTO 13009KT 9999NDV BKN044/// 17/10 Q1019=
201805121250 METAR EKRK 121250Z AUTO 13008KT 9999NDV FEW046/// 18/09 Q1019=
201805121220 METAR EKRK 121220Z AUTO 13009KT 9999NDV NCD 18/10 Q1019=
201805121150 METAR EKRK 121150Z AUTO 13009KT 100V160 9999NDV NCD 19/10 Q1019=
201805121120 METAR EKRK 121120Z AUTO VRB03KT 9999NDV NCD 19/09 Q1019=
201805121050 METAR EKRK 121050Z AUTO 13002KT 9999NDV NCD 19/09 Q1020=
201805121020 METAR EKRK 121020Z AUTO 07003KT 9999NDV NCD 18/07 Q1020=
201805120950 METAR EKRK 120950Z AUTO 03003KT 9999NDV NCD 17/08 Q1020=
201805120920 METAR EKRK 120920Z AUTO VRB01KT 9999NDV NCD 17/09 Q1020=
201805120850 METAR EKRK 120850Z AUTO 06003KT 9999NDV NCD 17/08 Q1020=
201805120820 METAR EKRK 120820Z AUTO VRB03KT 9999NDV NCD 16/08 Q1020=
201805120750 METAR EKRK 120750Z AUTO 02004KT 340V100 9999NDV NCD 16/10 Q1020=
201805120720 METAR EKRK 120720Z AUTO 02003KT 9999NDV NCD 15/08 Q1020=
201805120650 METAR EKRK 120650Z AUTO 04002KT 9999NDV NCD 15/09 Q1020=
201805120620 METAR EKRK 120620Z AUTO 36002KT 9999NDV FEW065/// 14/08 Q1020=
201805120550 METAR EKRK 120550Z AUTO 36003KT 9999NDV BKN065/// 13/09 Q1020=
201805120520 METAR EKRK 120520Z AUTO 03001KT 9999NDV BKN065/// 11/08 Q1020=
201805120450 METAR EKRK 120450Z AUTO 00000KT 9999NDV BKN065/// 09/08 Q1020=
201805120420 METAR EKRK 120420Z AUTO 35001KT 9999NDV FEW065/// 08/06 Q1020=
201805120350 METAR EKRK 120350Z AUTO 03002KT 9999NDV NCD 07/06 Q1020=
201805120320 METAR EKRK 120320Z AUTO 04003KT 9999NDV NCD 08/06 Q1020=
201805120250 METAR EKRK 120250Z AUTO 03004KT 9999NDV NCD 07/06 Q1020=
201805120220 METAR EKRK 120220Z AUTO 02001KT 5000NDV NCD 07/07 Q1020=
201805120150 METAR EKRK 120150Z AUTO 31001KT 9999NDV R11/0900N R29/P1500N NCD 06/06 Q1020=
201805120120 METAR EKRK 120120Z AUTO 33001KT 9999NDV R11/0750D R29/P1500N NCD 06/06 Q1020=
201805120050 METAR EKRK 120050Z AUTO 34001KT 9999NDV NCD 07/06 Q1020=
201805120020 METAR EKRK 120020Z AUTO 02002KT 9999NDV NCD 07/06 Q1020=
201805112350 METAR EKRK 112350Z AUTO 35003KT 9999NDV NCD 08/08 Q1020=
201805112320 METAR EKRK 112320Z AUTO 01002KT 9999NDV NCD 09/08 Q1020=
201805112250 METAR EKRK 112250Z AUTO 33001KT 8000NDV NCD 08/08 Q1020=
201805112220 METAR EKRK 112220Z AUTO 31001KT 7000NDV NCD 09/08 Q1020=
201805112150 METAR EKRK 112150Z AUTO 29002KT 9999NDV NCD 09/08 Q1020=
201805112120 METAR EKRK 112120Z AUTO 29001KT 9999NDV NCD 09/08 Q1020=
201805112050 METAR EKRK 112050Z AUTO 00000KT 9999NDV NCD 09/07 Q1020=
201805112020 METAR EKRK 112020Z AUTO 02001KT 9999NDV NCD 10/08 Q1020=
201805111950 METAR EKRK 111950Z AUTO 04002KT 9999NDV NCD 12/09 Q1020=
201805111920 METAR EKRK 111920Z AUTO 02002KT 9999NDV NCD 11/09 Q1020=
201805111850 METAR EKRK 111850Z AUTO 36002KT 9999NDV NCD 13/09 Q1019=
201805111820 METAR EKRK 111820Z AUTO 34002KT 9999NDV NCD 13/09 Q1019=
201805111750 METAR EKRK 111750Z AUTO 34003KT 9999NDV NCD 14/08 Q1019=
201805111720 METAR EKRK 111720Z AUTO 33004KT 9999NDV FEW055/// 14/08 Q1019=
201805111650 METAR EKRK 111650Z AUTO 33004KT 9999NDV FEW055/// 15/08 Q1019=
201805111620 METAR EKRK 111620Z AUTO 32005KT 290V350 9999NDV BKN050/// BKN065/// 14/08 Q1020=
201805111550 METAR EKRK 111550Z AUTO 33006KT 310V010 9999NDV BKN050/// 15/08 Q1020=
201805111520 METAR EKRK 111520Z AUTO 34007KT 310V010 9999NDV BKN050/// 14/08 Q1020=
201805111450 METAR EKRK 111450Z AUTO 33006KT 300V360 9999NDV BKN050/// 14/08 Q1020=
201805111420 METAR EKRK 111420Z AUTO 33007KT 9999NDV BKN050/// BKN070/// 14/09 Q1020=
201805111350 METAR EKRK 111350Z AUTO 34006KT 310V010 9999NDV BKN050/// BKN065/// 14/09 Q1020=
201805111320 METAR EKRK 111320Z AUTO 34005KT 290V010 9999NDV BKN050/// 14/09 Q1020=
201805111250 METAR EKRK 111250Z AUTO 36007KT 9999NDV FEW023/// BKN055/// BKN085/// 15/09 Q1020=
201805111220 METAR EKRK 111220Z AUTO 34008KT 9999NDV FEW023/// BKN070/// BKN085/// 15/09 Q1019=
201805111150 METAR EKRK 111150Z AUTO 34008KT 300V010 9999NDV FEW022/// BKN065/// BKN080/// 15/09 Q1020=
201805111120 METAR EKRK 111120Z AUTO 35009KT 320V020 9999NDV FEW022/// BKN055/// 16/10 Q1019=
201805111050 METAR EKRK 111050Z AUTO 33009KT 290V350 9999NDV BKN050/// BKN110/// 15/10 Q1019=
201805111020 METAR EKRK 111020Z AUTO 31009KT 9999NDV FEW090/// BKN110/// 14/09 Q1019=
201805110950 METAR EKRK 110950Z AUTO 31010KT 280V340 9999NDV FEW100/// SCT120/// BKN160/// 14/10 Q1019=
201805110920 METAR EKRK 110920Z AUTO 31010KT 280V350 9999NDV SCT160/// 15/10 Q1018=
201805110850 METAR EKRK 110850Z AUTO 32008KT 290V350 9999NDV FEW050/// 14/09 Q1018=
201805110820 METAR EKRK 110820Z AUTO 32011KT 290V350 9999NDV BKN049/// 13/09 Q1018=
201805110750 METAR EKRK 110750Z AUTO 31011KT 9999NDV FEW013/// SCT042/// OVC050/// 12/09 Q1018=
201805110720 METAR EKRK 110720Z AUTO 32011KT 9999NDV SCT038/// BKN055/// BKN085/// 12/09 Q1018=
201805110650 METAR EKRK 110650Z AUTO 32010KT 9999NDV FEW037/// BKN049/// BKN080/// 13/09 Q1018=
201805110620 METAR EKRK 110620Z AUTO 32010KT 9999NDV -SHRA BKN035/// OVC046/// 12/09 Q1018=
201805110550 METAR EKRK 110550Z AUTO 32009KT 9999NDV FEW011/// OVC032/// 11/09 Q1018=
201805110520 METAR EKRK 110520Z AUTO 31007KT 9999NDV BKN028/// OVC037/// 12/10 Q1018=
201805110450 METAR EKRK 110450Z AUTO 31009KT 9999NDV FEW026/// SCT041/// BKN070/// 12/09 Q1017=
201805110420 METAR EKRK 110420Z AUTO 32008KT 9999NDV SCT023/// BKN027/// 12/10 Q1017=
201805110350 METAR EKRK 110350Z AUTO 32008KT 9999NDV OVC020/// 12/10 Q1017=
201805110320 METAR EKRK 110320Z AUTO 32008KT 9999NDV FEW013/// SCT016/// OVC020/// 12/10 Q1016=
201805110250 METAR EKRK 110250Z AUTO 32009KT 9999NDV FEW010/// BKN013/// OVC016/// 12/10 Q1016=
201805110220 METAR EKRK 110220Z AUTO 32010KT 9999NDV FEW010/// BKN013/// BKN018/// 12/10 Q1015=
201805110150 METAR EKRK 110150Z AUTO 34010KT 300V360 9999NDV SCT009/// BKN011/// OVC014/// 12/11 Q1015=
201805110120 METAR EKRK 110120Z AUTO 33013KT 9999NDV FEW004/// SCT007/// BKN010/// 12/11 Q1015=
201805110050 METAR EKRK 110050Z AUTO 33013KT 4800NDV BR FEW001/// BKN003/// BKN005/// 13/13 Q1014=
201805110020 METAR EKRK 110020Z AUTO 33010KT 1200NDV R11/P1500N R29/P1500N BR BKN001/// 14/14 Q1014=
###################################
#  short TAF from EKRK
###################################
201805122320 TAF EKRK 122320Z 1300/1309 VRB03KT 9000 NSC PROB40 1301/1304 3000 BR BECMG 1306/1309 08010KT=
201805122300 TAF AMD EKRK 130000Z 1300/1309 VRB03KT 9000 NSC TEMPO 1300/1304 3000 BR BECMG 1306/1309 08010KT=
201805122023 TAF EKRK 122023Z 1221/1306 11004KT 9999 FEW030=
201805121727 TAF EKRK 121727Z 1218/1303 VRB05KT 9999 BKN035=
201805121422 TAF EKRK 121422Z 1215/1224 12008KT 9999 SCT040=
201805121131 TAF EKRK 121131Z 1212/1221 VRB05KT 9999 SCT040=
201805120809 TAF EKRK 120809Z 1209/1218 VRB05KT CAVOK BECMG 1209/1211 13008KT=
201805120508 TAF EKRK 120508Z 1206/1215 VRB03KT CAVOK BECMG 1209/1211 13008KT=
201805120216 TAF EKRK 120216Z 1203/1212 VRB03KT CAVOK PROB40 1203/1205 0300 FG=
201805112323 TAF EKRK 112323Z 1200/1209 VRB03KT CAVOK=
201805112020 TAF EKRK 112020Z 1121/1206 VRB03KT CAVOK=
201805111721 TAF EKRK 111721Z 1118/1203 VRB03KT CAVOK=
201805111422 TAF EKRK 111422Z 1115/1124 34005KT 9999 SCT030=
201805111122 TAF EKRK 111122Z 1112/1121 32008KT 9999 SCT030=
201805110820 TAF EKRK 110820Z 1109/1118 32010KT 9999 SCT030=
201805110521 TAF EKRK 110521Z 1106/1115 32010KT 9999 SCT025=
201805110220 TAF EKRK 110220Z 1103/1112 32010KT 9999 BKN012 BECMG 1103/1104 BKN020=
# No large TAF reports from EKRK in databse.
