##########################################################
# Query made at 05/23/2018 08:51:41 UTC
# Time interval: from 05/11/2018 00:00  to 05/12/2018 23:59  UTC
##########################################################
##########################################################
# EKRN, Roenne (Denmark)
# WMO index: 06190
# Latitude 55-04N. Longitude 014-45E. Altitude 16 m.
##########################################################
###################################
#  METAR/SPECI from EKRN
###################################
201805122350 METAR EKRN 122350Z AUTO 07005KT 9999NDV FEW066/// 10/09 Q1019=
201805122320 METAR EKRN 122320Z AUTO 06006KT 5000NDV BKN032/// 10/09 Q1019=
201805122250 METAR EKRN 122250Z AUTO 00000KT 9999NDV FEW034/// 10/10 Q1019=
201805122220 METAR EKRN 122220Z AUTO 05004KT 030V090 9999NDV FEW051/// 10/10 Q1019=
201805122150 METAR EKRN 122150Z AUTO 07003KT 9999NDV SCT052/// 10/09 Q1019=
201805122120 METAR EKRN 122120Z AUTO 02002KT 9999NDV BKN055/// 10/10 Q1019=
201805122050 METAR EKRN 122050Z AUTO 32002KT 9999NDV NCD 10/09 Q1019=
201805122020 METAR EKRN 122020Z AUTO 05003KT 9999NDV NCD 10/09 Q1019=
201805121950 METAR EKRN 121950Z AUTO 07003KT 8000NDV NCD 11/10 Q1019=
201805121920 METAR EKRN 121920Z AUTO 08005KT 7000NDV NCD 11/10 Q1019=
201805121850 METAR EKRN 121850Z AUTO 08006KT 6000NDV NCD 11/10 Q1019=
201805121820 METAR EKRN 121820Z AUTO 08004KT 9999NDV NCD 12/11 Q1019=
201805121750 METAR EKRN 121750Z AUTO 10003KT 9999NDV NCD 13/11 Q1019=
201805121720 METAR EKRN 121720Z AUTO 14004KT 9999NDV FEW002/// 12/11 Q1019=
201805121650 METAR EKRN 121650Z AUTO 15006KT 9999NDV BKN039/// 13/11 Q1019=
201805121620 METAR EKRN 121620Z AUTO VRB01KT 9999NDV OVC038/// 13/11 Q1019=
201805121550 METAR EKRN 121550Z AUTO 14002KT 9999NDV OVC038/// 13/10 Q1019=
201805121520 METAR EKRN 121520Z AUTO 15005KT 9999NDV BKN039/// 13/10 Q1019=
201805121450 METAR EKRN 121450Z AUTO 18004KT 120V260 9999NDV OVC038/// 14/10 Q1019=
201805121420 METAR EKRN 121420Z AUTO 26005KT 9999NDV OVC039/// 16/08 Q1020=
201805121350 METAR EKRN 121350Z AUTO 26004KT 9999NDV OVC040/// 16/09 Q1020=
201805121320 METAR EKRN 121320Z AUTO 27005KT 9999NDV BKN042/// 16/09 Q1020=
201805121250 METAR EKRN 121250Z AUTO 26005KT 9999NDV FEW041/// 15/09 Q1020=
201805121220 METAR EKRN 121220Z AUTO 24004KT 9999NDV BKN041/// 16/07 Q1020=
201805121150 METAR EKRN 121150Z AUTO 23003KT 9999NDV NCD 15/09 Q1020=
201805121120 METAR EKRN 121120Z AUTO 20003KT 9999NDV NCD 14/09 Q1021=
201805121050 METAR EKRN 121050Z AUTO 22003KT 9999NDV SCT038/// 14/08 Q1020=
201805121020 METAR EKRN 121020Z AUTO 27005KT 9999NDV OVC035/// 13/08 Q1020=
201805120950 METAR EKRN 120950Z AUTO 26004KT 210V280 9999NDV OVC034/// 12/09 Q1021=
201805120920 METAR EKRN 120920Z AUTO 14002KT 9999NDV OVC032/// 12/09 Q1021=
201805120850 METAR EKRN 120850Z AUTO 14003KT 9999NDV OVC027/// 12/09 Q1021=
201805120820 METAR EKRN 120820Z AUTO 13005KT 9999NDV OVC026/// 12/09 Q1021=
201805120750 METAR EKRN 120750Z AUTO 13003KT 8000NDV OVC027/// 12/10 Q1021=
201805120720 METAR EKRN 120720Z AUTO 14002KT 9999NDV OVC027/// 11/10 Q1020=
201805120650 METAR EKRN 120650Z AUTO 15003KT 9999NDV OVC026/// 11/10 Q1020=
201805120620 METAR EKRN 120620Z AUTO 17002KT 4600NDV BR OVC022/// 11/10 Q1020=
201805120550 METAR EKRN 120550Z AUTO 16002KT 4100NDV BR OVC024/// 11/10 Q1020=
201805120520 METAR EKRN 120520Z AUTO 15001KT 4700NDV BR OVC028/// 12/11 Q1020=
201805120450 METAR EKRN 120450Z AUTO 08001KT 8000NDV OVC027/// 11/10 Q1020=
201805120420 METAR EKRN 120420Z AUTO 05001KT 4500NDV BR OVC029/// 10/10 Q1020=
201805120350 METAR EKRN 120350Z AUTO 03001KT 4000NDV BR OVC029/// 10/09 Q1020=
201805120320 METAR EKRN 120320Z AUTO 05001KT 2100NDV BR OVC028/// 09/09 Q1020=
201805120250 METAR EKRN 120250Z AUTO 05002KT 2200NDV BR FEW027/// OVC033/// 08/08 Q1020=
201805120220 METAR EKRN 120220Z AUTO 13002KT 0250NDV R11/1100VP1500U R29/P1500N FG BKN027/// 08/07 Q1020=
201805120150 METAR EKRN 120150Z AUTO 00000KT 0600NDV R11/P1500N R29/0800VP1500D BCFG SCT027/// 08/07 Q1020=
201805120120 METAR EKRN 120120Z AUTO 07001KT 0400NDV R11/P1500N R29/P1500U FG NCD 07/07 Q1019=
201805120050 METAR EKRN 120050Z AUTO 34001KT 4000NDV R11/0800VP1500U R29/0450VP1500U BCFG NCD 08/07 Q1020=
201805120020 METAR EKRN 120020Z AUTO 05002KT 2600NDV BR NCD 08/08 Q1020=
201805112350 METAR EKRN 112350Z AUTO 04001KT 0150NDV R11/0500VP1500D R29/0450VP1500U BCFG SCT005/// 08/08 Q1020=
201805112320 METAR EKRN 112320Z AUTO 08002KT 0150NDV R11/P1500N R29/P1500N BCFG FEW010/// 08/08 Q1020=
201805112250 METAR EKRN 112250Z AUTO 08003KT 1100NDV R11/P1500N R29/P1500N BR NCD 09/08 Q1020=
201805112220 METAR EKRN 112220Z AUTO 00000KT 7000NDV NCD 09/08 Q1020=
201805112150 METAR EKRN 112150Z AUTO 20002KT 2200NDV BR NCD 09/08 Q1020=
201805112120 METAR EKRN 112120Z AUTO 16002KT 2300NDV BR NCD 09/09 Q1020=
201805112050 METAR EKRN 112050Z AUTO 16002KT 1000NDV R11/P1500N R29/P1500N BCFG NCD 09/09 Q1020=
201805112020 METAR EKRN 112020Z AUTO 12001KT 4200NDV BR NCD 09/09 Q1020=
201805111950 METAR EKRN 111950Z AUTO 11001KT 4500NDV BR NCD 10/09 Q1020=
201805111920 METAR EKRN 111920Z AUTO 00000KT 9999NDV NCD 10/09 Q1019=
201805111850 METAR EKRN 111850Z AUTO 24004KT 9999NDV NCD 11/09 Q1019=
201805111820 METAR EKRN 111820Z AUTO 24003KT 9999NDV BKN017/// 11/09 Q1019=
201805111750 METAR EKRN 111750Z AUTO 26004KT 9999NDV BKN016/// 12/09 Q1019=
201805111720 METAR EKRN 111720Z AUTO 29005KT 250V310 9999NDV OVC016/// 12/09 Q1019=
201805111650 METAR EKRN 111650Z AUTO 29007KT 9999NDV OVC014/// 13/09 Q1019=
201805111620 METAR EKRN 111620Z AUTO 30007KT 9999NDV OVC012/// 13/09 Q1019=
201805111550 METAR EKRN 111550Z AUTO 30008KT 9999NDV OVC007/// 12/09 Q1019=
201805111520 METAR EKRN 111520Z AUTO 28007KT 9999NDV OVC004/// 11/10 Q1019=
201805111450 METAR EKRN 111450Z AUTO 29006KT 9999NDV OVC004/// 12/11 Q1019=
201805111420 METAR EKRN 111420Z AUTO 28008KT 9999NDV OVC002/// 11/10 Q1019=
201805111350 METAR EKRN 111350Z AUTO 27008KT 3200NDV BR OVC002/// 12/10 Q1019=
201805111320 METAR EKRN 111320Z AUTO 27010KT 1300NDV R11/1300U R29/1000VP1500U HZ VV002 12/11 Q1019=
201805111250 METAR EKRN 111250Z AUTO 27007KT 6000NDV FEW097/// 15/13 Q1019=
201805111220 METAR EKRN 111220Z AUTO 28005KT 250V330 9000NDV FEW007/// BKN088/// 15/13 Q1019=
201805111150 METAR EKRN 111150Z AUTO 29005KT 260V340 8000NDV BKN011/// 15/13 Q1019=
201805111120 METAR EKRN 111120Z AUTO 28007KT 3200NDV BR FEW003/// BKN011/// BKN074/// 13/12 Q1019=
201805111050 METAR EKRN 111050Z AUTO 30005KT 4000NDV BR OVC002/// 12/12 Q1018=
201805111020 METAR EKRN 111020Z AUTO 27005KT 0550NDV R11/0550V0900U R29/0600V1400U FG VV002 11/10 Q1018=
201805110950 METAR EKRN 110950Z AUTO 25005KT 1000NDV R11/0900VP1500D R29/1200VP1500D BR OVC002/// 11/10 Q1018=
201805110920 METAR EKRN 110920Z AUTO 20002KT 1800NDV R11/1300D R29/P1500U -SHRA BR VV002 11/10 Q1018=
201805110850 METAR EKRN 110850Z AUTO 22003KT 3300NDV -SHRA BR VV002 11/10 Q1018=
201805110820 METAR EKRN 110820Z AUTO 22003KT 4700NDV -DZ BR BKN001/// BKN015/// BKN081/// 11/11 Q1017=
201805110750 METAR EKRN 110750Z AUTO 26006KT 2900NDV -RA BR FEW018/// OVC084/// 11/11 Q1017=
201805110720 METAR EKRN 110720Z AUTO 27005KT 7000NDV BKN097/// BKN140/// 13/12 Q1017=
201805110650 METAR EKRN 110650Z AUTO 32003KT 9999NDV SCT003/// BKN100/// BKN140/// 14/13 Q1017=
201805110620 METAR EKRN 110620Z AUTO 36004KT 330V040 6000NDV BKN002/// 13/12 Q1016=
201805110550 METAR EKRN 110550Z AUTO 33008KT 6000NDV BKN003/// 12/11 Q1016=
201805110520 METAR EKRN 110520Z AUTO 32009KT 7000NDV BKN003/// BKN120/// BKN150/// 12/11 Q1015=
201805110450 METAR EKRN 110450Z AUTO 30013KT 9000NDV FEW004/// OVC120/// 11/10 Q1015=
201805110420 METAR EKRN 110420Z AUTO 31009KT 8000NDV SCT120/// BKN140/// 12/11 Q1015=
201805110350 METAR EKRN 110350Z AUTO 31005KT 9000NDV -SHRA FEW054/// BKN100/// BKN130/// 12/11 Q1015=
201805110320 METAR EKRN 110320Z AUTO 23003KT 9999NDV BKN085/// 12/10 Q1015=
201805110250 METAR EKRN 110250Z AUTO 13005KT 090V160 9999NDV -SHRA FEW060/// OVC068/// 15/12 Q1015=
201805110220 METAR EKRN 110220Z AUTO 09008KT 9999NDV -SHRA BKN087/// 15/12 Q1014=
201805110150 METAR EKRN 110150Z AUTO 06006KT 9999NDV BKN085/// BKN120/// 15/12 Q1013=
201805110120 METAR EKRN 110120Z AUTO 03008KT 9999NDV FEW100/// BKN130/// BKN140/// 15/12 Q1013=
201805110050 METAR EKRN 110050Z AUTO 02006KT 9999NDV SCT130/// 15/12 Q1013=
201805110020 METAR EKRN 110020Z AUTO 01008KT 9999NDV FEW130/// 15/13 Q1013=
###################################
#  short TAF from EKRN
###################################
201805121727 TAF EKRN 121727Z 1218/1223 VRB05KT 9999 BKN035 PROB40 1220/1223 3000 BR BKN002=
201805121458 TAF AMD EKRN 121458Z 1215/1223 VRB05KT 9999 BKN035 PROB40 1220/1223 3000 BR BKN002=
201805121422 TAF EKRN 121422Z 1215/1223 VRB05KT 9999 BKN035=
201805121131 TAF EKRN 121131Z 1212/1221 VRB05KT 9999 FEW030=
201805120809 TAF EKRN 120809Z 1209/1218 13005KT 9000 BKN028=
201805120604 TAF AMD EKRN 120604Z 1206/1215 VRB03KT 4000 BR BKN025 BECMG 1206/1209 9999 NSW=
201805120508 TAF EKRN 120508Z 1206/1215 VRB03KT 9999 BKN025=
201805120253 TAF EKRN 120253Z 1203/1212 VRB03KT 8000 BKN025 PROB40 1203/1212 0500 FG VV002=
201805111422 TAF EKRN 111422Z 1115/1120 27005KT 2000 BR BKN002 TEMPO 1115/1120 9999 NSW SCT008 SCT040CB=
201805111122 TAF EKRN 111122Z 1112/1120 30006KT 8000 SCT008 SCT040CB TEMPO 1112/1115 0500 FG VV002 TEMPO 1115/1120 2000 BR BKN003=
201805111024 TAF AMD EKRN 111024Z 1110/1118 26006KT 8000 SCT008 SCT040CB TEMPO 1110/1114 0500 FG VV002 TEMPO 1114/1118 2000 BR BKN002=
201805110820 TAF EKRN 110820Z 1109/1118 26006KT 8000 SCT008 SCT040CB TEMPO 1109/1113 1200 BR BKN003 TEMPO 1113/1118 BKN003=
201805110521 TAF EKRN 110521Z 1106/1115 26006KT CAVOK BECMG 1106/1108 0400 FG BKN001 TEMPO 1108/1113 8000 NSW SCT008 SCT040CB BECMG 1113/1115 9999 NSW BKN008=
201805110352 TAF EKRN 110352Z 1104/1112 26006KT CAVOK TEMPO 1104/1105 SCT040CB BECMG 1105/1107 0600 FG BKN001 TEMPO 1107/1112 8000 NSW SCT008 SCT040CB=
# No large TAF reports from EKRN in databse.
