##########################################################
# Query made at 05/23/2018 08:48:47 UTC
# Time interval: from 05/11/2018 00:00  to 05/12/2018 23:59  UTC
##########################################################

##########################################################
# EKSB, Soenderborg Lufthavn (Denmark)
# WMO index: 06118
# Latitude 54-58N. Longitude 009-47E. Altitude 7 m.
##########################################################

###################################
#  METAR/SPECI from EKSB
###################################
201805122350 METAR EKSB 122350Z AUTO 07003KT 9999NDV BKN081/// 12/11 Q1017=
201805122320 METAR EKSB 122320Z AUTO 10002KT 9999NDV BKN082/// 11/10 Q1017=
201805122250 METAR EKSB 122250Z AUTO 09004KT 9999NDV BKN082/// 12/10 Q1017=
201805122220 METAR EKSB 122220Z AUTO 09002KT 9999NDV BKN082/// 11/09 Q1017=
201805122150 METAR EKSB 122150Z AUTO 06002KT 9999NDV NCD 11/09 Q1017=
201805122120 METAR EKSB 122120Z AUTO 13001KT 9999NDV NCD 12/09 Q1017=
201805122050 METAR EKSB 122050Z AUTO 12001KT 9999NDV NCD 12/10 Q1017=
201805122020 METAR EKSB 122020Z AUTO 04002KT 9999NDV NCD 12/10 Q1017=
201805121950 METAR EKSB 121950Z AUTO 04002KT 9999NDV NCD 13/11 Q1017=
201805121920 METAR EKSB 121920Z AUTO 16002KT 9999NDV NCD 13/10 Q1017=
201805121850 METAR EKSB 121850Z AUTO 14003KT 9999NDV NCD 14/10 Q1017=
201805121820 METAR EKSB 121820Z AUTO 14004KT 9999NDV NCD 14/10 Q1017=
201805121750 METAR EKSB 121750Z AUTO 15004KT 9999NDV NCD 15/10 Q1017=
201805121720 METAR EKSB 121720Z AUTO 15005KT 9999NDV NCD 16/10 Q1017=
201805121650 METAR EKSB 121650Z AUTO 12006KT 9999NDV NCD 17/11 Q1017=
201805121620 METAR EKSB 121620Z AUTO 12007KT 9999NDV NCD 17/11 Q1017=
201805121550 METAR EKSB 121550Z AUTO 12008KT 9999NDV NCD 17/12 Q1017=
201805121520 METAR EKSB 121520Z 12009KT 9999 FEW030 17/12 Q1018=
201805121450 METAR EKSB 121450Z 13011KT 9999 FEW030 17/12 Q1018=
201805121420 METAR EKSB 121420Z 13010KT CAVOK 18/12 Q1018=
201805121350 METAR EKSB 121350Z 11010KT CAVOK 18/13 Q1018=
201805121320 METAR EKSB 121320Z 10011KT CAVOK 18/12 Q1018=
201805121250 METAR EKSB 121250Z 08009KT CAVOK 18/13 Q1018=
201805121220 METAR EKSB 121220Z 11009KT CAVOK 17/12 Q1018=
201805121150 METAR EKSB 121150Z 13008KT CAVOK 16/12 Q1019=
201805121120 METAR EKSB 121120Z 13008KT CAVOK 16/12 Q1019=
201805121050 METAR EKSB 121050Z 13008KT CAVOK 16/11 Q1019=
201805121020 METAR EKSB 121020Z 13008KT CAVOK 16/12 Q1019=
201805120953 METAR EKSB 120953Z NIL=
201805120920 METAR EKSB 120920Z 12008KT CAVOK 16/11 Q1019=
201805120850 METAR EKSB 120850Z 10009KT 9999 FEW035 SCT085 16/12 Q1019=
201805120820 METAR EKSB 120820Z 11009KT 9999 FEW035 SCT085 15/11 Q1019=
201805120750 METAR EKSB 120750Z 10007KT 9999 SCT035 16/12 Q1019=
201805120720 METAR EKSB 120720Z 09006KT 9999 SCT035 14/12 Q1019=
201805120650 METAR EKSB 120650Z 09006KT 9999 SCT045 13/12 Q1019=
201805120620 METAR EKSB 120620Z 10005KT 9999 BKN045 13/12 Q1019=
201805120550 METAR EKSB 120550Z 08005KT 9999 BKN045 13/12 Q1019=
201805120520 METAR EKSB 120520Z 09003KT 9999 BKN045 12/11 Q1019=
201805120457 METAR EKSB 120457Z 10004KT 9999 BKN040 12/11 Q1019=
201805120453 METAR EKSB 120453Z NIL=
201805120420 METAR EKSB 120420Z AUTO 08004KT 9999NDV OVC050/// 12/10 Q1019=
201805120350 METAR EKSB 120350Z AUTO 07003KT 9999NDV BKN050/// BKN084///
                        12/10 Q1019=
201805120320 METAR EKSB 120320Z AUTO 06001KT 9999NDV BKN051/// BKN087///
                        11/10 Q1019=
201805120250 METAR EKSB 120250Z AUTO 13003KT 9999NDV FEW053/// BKN084///
                        11/09 Q1019=
201805120220 METAR EKSB 120220Z AUTO 08002KT 9999NDV BKN059/// BKN083///
                        11/10 Q1019=
201805120150 METAR EKSB 120150Z AUTO 00000KT 9999NDV BKN065/// 11/10 Q1019=
201805120120 METAR EKSB 120120Z AUTO 11001KT 9999NDV FEW065/// BKN085///
                        11/10 Q1019=
201805120050 METAR EKSB 120050Z AUTO 00000KT 9999NDV FEW069/// BKN083///
                        10/09 Q1019=
201805120020 METAR EKSB 120020Z AUTO 10001KT 9999NDV BKN086/// 10/08 Q1019=
201805112350 METAR EKSB 112350Z AUTO 12001KT 9999NDV BKN084/// 10/08 Q1019=
201805112320 METAR EKSB 112320Z AUTO 30003KT 9999NDV FEW083/// 10/08 Q1019=
201805112250 METAR EKSB 112250Z AUTO 25002KT 9999NDV NCD 09/08 Q1020=
201805112220 METAR EKSB 112220Z AUTO 24001KT 9999NDV NCD 10/07 Q1020=
201805112150 METAR EKSB 112150Z AUTO 13003KT 9999NDV NCD 10/08 Q1020=
201805112120 METAR EKSB 112120Z AUTO 13003KT 9999NDV NCD 11/07 Q1020=
201805112050 METAR EKSB 112050Z AUTO 00000KT 9999NDV NCD 10/07 Q1019=
201805112020 METAR EKSB 112020Z AUTO 24003KT 9999NDV NCD 10/08 Q1020=
201805111950 METAR EKSB 111950Z AUTO 27002KT 9999NDV NCD 11/08 Q1019=
201805111920 METAR EKSB 111920Z AUTO 21002KT 9999NDV NCD 12/09 Q1019=
201805111850 METAR EKSB 111850Z AUTO 18002KT 9999NDV NCD 14/09 Q1019=
201805111820 METAR EKSB 111820Z AUTO 17003KT 9999NDV NCD 15/09 Q1019=
201805111750 METAR EKSB 111750Z AUTO 14001KT 9999NDV NCD 16/10 Q1019=
201805111720 METAR EKSB 111720Z AUTO 00000KT 9999NDV NCD 17/10 Q1019=
201805111650 METAR EKSB 111650Z AUTO 21002KT 9999NDV SCT047/// 16/09 Q1019=
201805111620 METAR EKSB 111620Z AUTO 35003KT 9999NDV NCD 17/07 Q1019=
201805111550 METAR EKSB 111550Z AUTO 35003KT 9999NDV NCD 17/07 Q1019=
201805111520 METAR EKSB 111520Z AUTO 02003KT 9999NDV FEW047/// 17/08 Q1019=
201805111450 METAR EKSB 111450Z 36002KT 9999 SCT040 17/09 Q1019=
201805111420 METAR EKSB 111420Z 02003KT 9999 SCT040 17/07 Q1019=
201805111350 METAR EKSB 111350Z 01004KT 340V040 9999 SCT040 16/08 Q1020=
201805111320 METAR EKSB 111320Z 01004KT 330V030 9999 SCT040 17/09 Q1020=
201805111250 METAR EKSB 111250Z 01004KT 340V040 9999 SCT040 16/07 Q1020=
201805111220 METAR EKSB 111220Z 36005KT 330V030 9999 SCT035 15/07 Q1020=
201805111150 METAR EKSB 111150Z 34005KT 310V020 9999 SCT035 16/08 Q1020=
201805111120 METAR EKSB 111120Z AUTO 34005KT 9999NDV NCD 15/08 Q1020=
201805111050 METAR EKSB 111050Z AUTO 34006KT 9999NDV FEW099/// 15/08 Q1020=
201805111020 METAR EKSB 111020Z AUTO 34006KT 9999NDV NCD 14/08 Q1020=
201805110950 METAR EKSB 110950Z AUTO 33006KT 9999NDV NCD 14/08 Q1020=
201805110920 METAR EKSB 110920Z AUTO 33007KT 9999NDV NCD 14/08 Q1020=
201805110850 METAR EKSB 110850Z AUTO 33006KT 290V350 9999NDV NCD 14/07
                        Q1020=
201805110820 METAR EKSB 110820Z AUTO 32007KT 290V350 9999NDV NCD 13/07
                        Q1020=
201805110750 METAR EKSB 110750Z AUTO 28007KT 9999NDV NCD 12/08 Q1020=
201805110720 METAR EKSB 110720Z AUTO 31008KT 9999NDV NCD 12/08 Q1020=
201805110650 METAR EKSB 110650Z AUTO 30007KT 9999NDV SCT092/// 11/09 Q1020=
201805110620 METAR EKSB 110620Z AUTO 29007KT 9999NDV BKN091/// 11/09 Q1020=
201805110550 METAR EKSB 110550Z AUTO 29006KT 250V320 9999NDV FEW010///
                        BKN087/// 11/09 Q1020=
201805110520 METAR EKSB 110520Z AUTO 28007KT 9999NDV BKN011/// BKN100///
                        10/09 Q1019=
201805110450 METAR EKSB 110450Z AUTO 28005KT 250V310 9999NDV SCT010///
                        SCT085/// BKN099/// 10/09 Q1019=
201805110420 METAR EKSB 110420Z AUTO 28005KT 230V310 9999NDV FEW010///
                        BKN084/// BKN097/// 10/09 Q1019=
201805110350 METAR EKSB 110350Z AUTO 29007KT 9999NDV OVC083/// 10/09 Q1018=
201805110320 METAR EKSB 110320Z AUTO 30006KT 9999NDV OVC082/// 10/09 Q1018=
201805110250 METAR EKSB 110250Z AUTO 30006KT 9999NDV BKN079/// 10/09 Q1018=
201805110220 METAR EKSB 110220Z AUTO 29007KT 9999NDV SCT078/// BKN093///
                        10/09 Q1018=
201805110150 METAR EKSB 110150Z AUTO 30008KT 9999NDV FEW081/// BKN093///
                        11/09 Q1017=
201805110120 METAR EKSB 110120Z AUTO 30008KT 9999NDV BKN079/// BKN094///
                        11/09 Q1017=
201805110050 METAR EKSB 110050Z AUTO 30008KT 9999NDV BKN079/// BKN096///
                        11/09 Q1017=
201805110020 METAR EKSB 110020Z AUTO 29007KT 9999NDV OVC080/// 11/09 Q1017=

###################################
#  short TAF from EKSB
###################################
201805121157 TAF EKSB 121157Z 1212/1216 13008KT 9999 FEW045=
201805120846 TAF EKSB 120846Z 1209/1216 10008KT 9999 FEW045=
201805120546 TAF EKSB 120546Z 1206/1215 10005KT 9999 SCT045=
201805120457 TAF EKSB 120457Z 1205/1212 10005KT 9999 BKN045=
201805111150 TAF EKSB 111150Z 1112/1116 34005KT 9999 SCT030=

# No large TAF reports from EKSB in databse.
