##########################################################
# Query made at 05/23/2018 08:38:13 UTC
# Time interval: from 05/11/2018 00:00  to 05/12/2018 23:59  UTC
##########################################################
##########################################################
# EKSN, Sindal Flyveplads (Denmark)
# WMO index: 06034
# Latitude 57-30N. Longitude 010-13E. Altitude 28 m.
##########################################################
###################################
#  METAR/SPECI from EKSN
###################################
201805122353 METAR EKSN 122353Z NIL=
201805122323 METAR EKSN 122323Z NIL=
201805122253 METAR EKSN 122253Z NIL=
201805122223 METAR EKSN 122223Z NIL=
201805122153 METAR EKSN 122153Z NIL=
201805122123 METAR EKSN 122123Z NIL=
201805122053 METAR EKSN 122053Z NIL=
201805122023 METAR EKSN 122023Z NIL=
201805121953 METAR EKSN 121953Z NIL=
201805121923 METAR EKSN 121923Z NIL=
201805121853 METAR EKSN 121853Z NIL=
201805121823 METAR EKSN 121823Z NIL=
201805121753 METAR EKSN 121753Z NIL=
201805121723 METAR EKSN 121723Z NIL=
201805121653 METAR EKSN 121653Z NIL=
201805121623 METAR EKSN 121623Z NIL=
201805121553 METAR EKSN 121553Z NIL=
201805121523 METAR EKSN 121523Z NIL=
201805121453 METAR EKSN 121453Z NIL=
201805121423 METAR EKSN 121423Z NIL=
201805121353 METAR EKSN 121353Z NIL=
201805121323 METAR EKSN 121323Z NIL=
201805121253 METAR EKSN 121253Z NIL=
201805121223 METAR EKSN 121223Z NIL=
201805121153 METAR EKSN 121153Z NIL=
201805121123 METAR EKSN 121123Z NIL=
201805121053 METAR EKSN 121053Z NIL=
201805121023 METAR EKSN 121023Z NIL=
201805120953 METAR EKSN 120953Z NIL=
201805120923 METAR EKSN 120923Z NIL=
201805120853 METAR EKSN 120853Z NIL=
201805120823 METAR EKSN 120823Z NIL=
201805120753 METAR EKSN 120753Z NIL=
201805120723 METAR EKSN 120723Z NIL=
201805120653 METAR EKSN 120653Z NIL=
201805120623 METAR EKSN 120623Z NIL=
201805120553 METAR EKSN 120553Z NIL=
201805120523 METAR EKSN 120523Z NIL=
201805120453 METAR EKSN 120453Z NIL=
201805120423 METAR EKSN 120423Z NIL=
201805120353 METAR EKSN 120353Z NIL=
201805120323 METAR EKSN 120323Z NIL=
201805120253 METAR EKSN 120253Z NIL=
201805120223 METAR EKSN 120223Z NIL=
201805120153 METAR EKSN 120153Z NIL=
201805120123 METAR EKSN 120123Z NIL=
201805120053 METAR EKSN 120053Z NIL=
201805120023 METAR EKSN 120023Z NIL=
201805112353 METAR EKSN 112353Z NIL=
201805112323 METAR EKSN 112323Z NIL=
201805112253 METAR EKSN 112253Z NIL=
201805112223 METAR EKSN 112223Z NIL=
201805112153 METAR EKSN 112153Z NIL=
201805112123 METAR EKSN 112123Z NIL=
201805112053 METAR EKSN 112053Z NIL=
201805112023 METAR EKSN 112023Z NIL=
201805111953 METAR EKSN 111953Z NIL=
201805111923 METAR EKSN 111923Z NIL=
201805111853 METAR EKSN 111853Z NIL=
201805111823 METAR EKSN 111823Z NIL=
201805111753 METAR EKSN 111753Z NIL=
201805111723 METAR EKSN 111723Z NIL=
201805111653 METAR EKSN 111653Z NIL=
201805111623 METAR EKSN 111623Z NIL=
201805111553 METAR EKSN 111553Z NIL=
201805111523 METAR EKSN 111523Z NIL=
201805111453 METAR EKSN 111453Z NIL=
201805111423 METAR EKSN 111423Z NIL=
201805111353 METAR EKSN 111353Z NIL=
201805111323 METAR EKSN 111323Z NIL=
201805111253 METAR EKSN 111253Z NIL=
201805111223 METAR EKSN 111223Z NIL=
201805111150 METAR EKSN 111150Z 25012KT CAVOK 14/08 Q1019=
201805111123 METAR EKSN 111123Z NIL=
201805111050 METAR EKSN 111050Z 28010KT CAVOK 14/08 Q1019=
201805111023 METAR EKSN 111023Z NIL=
201805110950 METAR EKSN 110950Z 28012KT CAVOK 13/09 Q1018=
201805110923 METAR EKSN 110923Z NIL=
201805110850 METAR EKSN 110850Z 28008KT CAVOK 13/09 Q1017=
201805110823 METAR EKSN 110823Z NIL=
201805110750 METAR EKSN 110750Z 28010KT CAVOK 12/09 Q1017=
201805110723 METAR EKSN 110723Z NIL=
201805110650 METAR EKSN 110650Z 28008KT CAVOK 11/09 Q1017=
201805110623 METAR EKSN 110623Z NIL=
201805110620 METAR EKSN 110620Z 27012KT CAVOK 11/09 Q1016=
201805110553 METAR EKSN 110553Z NIL=
201805110523 METAR EKSN 110523Z NIL=
201805110453 METAR EKSN 110453Z NIL=
201805110423 METAR EKSN 110423Z NIL=
201805110353 METAR EKSN 110353Z NIL=
201805110323 METAR EKSN 110323Z NIL=
201805110253 METAR EKSN 110253Z NIL=
201805110223 METAR EKSN 110223Z NIL=
201805110153 METAR EKSN 110153Z NIL=
201805110123 METAR EKSN 110123Z NIL=
201805110053 METAR EKSN 110053Z NIL=
201805110023 METAR EKSN 110023Z NIL=
###################################
#  short TAF from EKSN
###################################
201805110854 TAF EKSN 110854Z 1109/1114 26012KT 9999 FEW030=
201805110650 TAF EKSN 110650Z 1107/1114 26012KT 9999 FEW030=
# No large TAF reports from EKSN in databse.
