##########################################################
# Query made at 05/23/2018 08:47:48 UTC
# Time interval: from 05/11/2018 00:00  to 05/12/2018 23:59  UTC
##########################################################

##########################################################
# EKSP, Skrydstrup (Denmark)
# WMO index: 06110
# Latitude 55-14N. Longitude 009-16E. Altitude 43 m.
##########################################################

###################################
#  METAR/SPECI from EKSP
###################################
201805122350 METAR EKSP 122350Z 07003KT CAVOK 10/07 Q1017=
201805122320 METAR EKSP 122320Z 06003KT CAVOK 09/06 Q1018=
201805122250 METAR EKSP 122250Z 06004KT CAVOK 10/06 Q1018=
201805122220 METAR EKSP 122220Z 05003KT CAVOK 10/06 Q1018=
201805122150 METAR EKSP 122150Z 04004KT CAVOK 11/06 Q1018=
201805122120 METAR EKSP 122120Z 04004KT CAVOK 12/07 Q1018=
201805122050 METAR EKSP 122050Z 04002KT CAVOK 12/07 Q1018=
201805122020 METAR EKSP 122020Z 06001KT CAVOK 13/08 Q1018=
201805121950 METAR EKSP 121950Z 08005KT CAVOK 12/09 Q1018=
201805121920 METAR EKSP 121920Z 08006KT CAVOK 13/08 Q1018=
201805121850 METAR EKSP 121850Z 08006KT CAVOK 14/08 Q1017=
201805121820 METAR EKSP 121820Z 08004KT CAVOK 15/09 Q1017=
201805121750 METAR EKSP 121750Z 11004KT CAVOK 16/11 Q1017=
201805121720 METAR EKSP 121720Z 12006KT 090V160 CAVOK 16/11 Q1017=
201805121650 METAR EKSP 121650Z 11005KT CAVOK 16/11 Q1018=
201805121620 METAR EKSP 121620Z 11006KT 080V140 9999 FEW040 SCT080 17/11
                        Q1018=
201805121550 METAR EKSP 121550Z 10010KT 070V140 9999 FEW040 SCT080 18/12
                        Q1018=
201805121520 METAR EKSP 121520Z 12009KT 080V140 9999 FEW040 SCT080 18/11
                        Q1018=
201805121450 METAR EKSP 121450Z 11009KT CAVOK 18/09 Q1018=
201805121420 METAR EKSP 121420Z 11009KT 080V140 CAVOK 18/10 Q1018=
201805121350 METAR EKSP 121350Z 11010KT 080V150 CAVOK 19/10 Q1018=
201805121320 METAR EKSP 121320Z 11008KT 080V150 CAVOK 18/10 Q1018=
201805121250 METAR EKSP 121250Z 11009KT 080V150 9999 FEW077TCU SCT200
                        18/10 Q1019=
201805121220 METAR EKSP 121220Z 13010KT 090V160 9999 FEW040TCU SCT200
                        18/11 Q1019=
201805121150 METAR EKSP 121150Z 11010KT 070V140 9999 FEW040TCU 18/11 Q1019=
201805121120 METAR EKSP 121120Z 10010KT 070V140 9999 FEW040TCU SCT085
                        18/12 Q1019=
201805121050 METAR EKSP 121050Z 10008KT 080V140 9999 FEW040 SCT085 17/11
                        Q1019=
201805121020 METAR EKSP 121020Z 11010KT 080V140 CAVOK 17/11 Q1019=
201805120950 METAR EKSP 120950Z 10010KT 070V130 CAVOK 17/11 Q1019=
201805120920 METAR EKSP 120920Z 11011KT 080V140 9999 FEW031 SCT085 16/10
                        Q1020=
201805120850 METAR EKSP 120850Z 10007KT 060V120 9999 FEW040 BKN088 15/11
                        Q1020=
201805120820 METAR EKSP 120820Z 10008KT 9999 FEW040 SCT055 BKN085 14/11
                        Q1020=
201805120750 METAR EKSP 120750Z 09006KT 9999 FEW040 SCT055 BKN085 13/11
                        Q1020=
201805120720 METAR EKSP 120720Z 07005KT 9999 FEW044 BKN062 12/10 Q1020=
201805120650 METAR EKSP 120650Z 08005KT CAVOK 12/10 Q1020=
201805120620 METAR EKSP 120620Z 08005KT 9999 FEW045 BKN077 11/10 Q1020=
201805120550 METAR EKSP 120550Z 08005KT 9999 FEW045 BKN077 11/09 Q1019=
201805120520 METAR EKSP 120520Z 07005KT 9999 FEW045 BKN085 10/08 Q1019=
201805120450 METAR EKSP 120450Z 06004KT 9999 FEW045 BKN085 10/08 Q1019=
201805120420 METAR EKSP 120420Z 07004KT CAVOK 09/07 Q1019=
201805120350 METAR EKSP 120350Z 08004KT CAVOK 08/07 Q1019=
201805120320 METAR EKSP 120320Z 04001KT CAVOK 08/06 Q1019=
201805120250 METAR EKSP 120250Z 06002KT CAVOK 06/06 Q1019=
201805120220 METAR EKSP 120220Z 07001KT CAVOK 06/05 Q1019=
201805120150 METAR EKSP 120150Z 00000KT CAVOK 05/05 Q1019=
201805120120 METAR EKSP 120120Z 00000KT CAVOK 05/05 Q1019=
201805120050 METAR EKSP 120050Z 00000KT CAVOK 05/05 Q1019=
201805120020 METAR EKSP 120020Z 00000KT CAVOK 06/05 Q1019=
201805112350 METAR EKSP 112350Z 00000KT CAVOK 05/04 Q1020=
201805112320 METAR EKSP 112320Z 00000KT CAVOK 06/05 Q1020=
201805112250 METAR EKSP 112250Z 12001KT CAVOK 07/05 Q1020=
201805112220 METAR EKSP 112220Z 18001KT CAVOK 07/06 Q1020=
201805112150 METAR EKSP 112150Z 00000KT CAVOK 07/05 Q1020=
201805112120 METAR EKSP 112120Z 27001KT CAVOK 08/06 Q1020=
201805112050 METAR EKSP 112050Z 30001KT CAVOK 09/06 Q1020=
201805112020 METAR EKSP 112020Z 00000KT CAVOK 09/06 Q1020=
201805111950 METAR EKSP 111950Z 30002KT CAVOK 11/06 Q1020=
201805111922 METAR EKSP 111922Z NIL=
201805111920 METAR EKSP 111920Z 30003KT CAVOK 12/07 Q1020=
201805111850 METAR EKSP 111850Z 29004KT 9999 FEW046 SCT230 13/06 Q1019=
201805111820 METAR EKSP 111820Z 29007KT 9999 FEW046 14/07 Q1019=
201805111750 METAR EKSP 111750Z 27008KT 9999 FEW046 14/08 Q1019=
201805111720 METAR EKSP 111720Z 28010KT 9999 FEW046 15/07 Q1019=
201805111650 METAR EKSP 111650Z 30008KT 260V330 9999 FEW046 16/07 Q1019=
201805111620 METAR EKSP 111620Z 27004KT 220V320 9999 FEW044 17/07 Q1019=
201805111550 METAR EKSP 111550Z 24004KT 200V300 9999 FEW043 16/07 Q1019=
201805111520 METAR EKSP 111520Z VRB03KT 9999 FEW046 17/06 Q1019=
201805111450 METAR EKSP 111450Z 29002KT 9999 FEW040 17/06 Q1020=
201805111420 METAR EKSP 111420Z VRB03KT 9999 FEW040 16/06 Q1020=
201805111350 METAR EKSP 111350Z 30002KT 9999 FEW040 16/07 Q1020=
201805111320 METAR EKSP 111320Z 30004KT 210V020 9999 FEW037 16/07 Q1020=
201805111250 METAR EKSP 111250Z 29004KT 250V360 9999 FEW037 16/08 Q1020=
201805111220 METAR EKSP 111220Z 29005KT 230V350 9999 FEW037 16/07 Q1020=
201805111150 METAR EKSP 111150Z 31005KT 260V360 9999 FEW037 16/07 Q1020=
201805111120 METAR EKSP 111120Z 28007KT 240V350 9999 FEW035 15/07 Q1020=
201805111050 METAR EKSP 111050Z 30006KT 260V340 9999 FEW030 15/06 Q1020=
201805111020 METAR EKSP 111020Z 28005KT 220V330 9999 FEW030 14/06 Q1020=
201805110950 METAR EKSP 110950Z 28004KT 240V330 9999 FEW015 14/06 Q1020=
201805110920 METAR EKSP 110920Z 29006KT 230V340 9999 FEW015 14/07 Q1020=
201805110850 METAR EKSP 110850Z 28007KT 240V320 9999 FEW015 13/06 Q1020=
201805110820 METAR EKSP 110820Z 29006KT 250V330 9999 FEW015 13/08 Q1020=
201805110750 METAR EKSP 110750Z 28009KT 9999 FEW015 12/08 Q1020=
201805110720 METAR EKSP 110720Z 28008KT 260V320 9999 FEW013 11/08 Q1020=
201805110650 METAR EKSP 110650Z 28007KT 9999 FEW009 11/08 Q1020=
201805110620 METAR EKSP 110620Z 30007KT 9999 FEW006 10/08 Q1020=
201805110550 METAR EKSP 110550Z 29006KT 9999 FEW006 10/08 Q1020=
201805110520 METAR EKSP 110520Z 28005KT CAVOK 09/08 Q1020=
201805110450 METAR EKSP 110450Z 28006KT CAVOK 09/08 Q1019=
201805110420 METAR EKSP 110420Z 29005KT CAVOK 09/08 Q1019=
201805110350 METAR EKSP 110350Z 30005KT 9999 FEW010 BKN090 09/08 Q1019=
201805110320 METAR EKSP 110320Z 30007KT 9999 SCT010 BKN090 09/08 Q1019=
201805110250 METAR EKSP 110250Z 29007KT 9999 BKN008 10/08 Q1018=
201805110220 METAR EKSP 110220Z 30005KT 9999 BKN008 10/09 Q1018=
201805110152 METAR EKSP 110152Z 29005KT 9999 SCT008 BKN100 09/08 Q1018=
201805110120 METAR EKSP 110120Z 28006KT 9999 FEW010 BKN100 09/08 Q1018=
201805110050 METAR EKSP 110050Z 29007KT CAVOK 09/08 Q1017=
201805110020 METAR EKSP 110020Z 28006KT CAVOK 10/08 Q1017=

# No short TAF reports from EKSP in databse.

###################################
#  large TAF from EKSP
###################################
201805122325 TAF EKSP 122325Z 1300/1324 06005KT 9999 FEW200
                      PROB40 1303/1310 5000 BR BKN008
                      TEMPO 1310/1318 10012G22KT=
201805122022 TAF EKSP 122022Z 1221/1318 08005KT 9999 FEW080
                      TEMPO 1310/1318 10012G22KT=
201805121722 TAF EKSP 121722Z 1218/1318 09008KT 9999 SCT080
                      TEMPO 1310/1318 10012G22KT=
201805121407 TAF EKSP 121407Z 1215/1312 09008KT 9999 SCT080=
201805121121 TAF EKSP 121121Z 1212/1312 11010KT 9999 FEW030 BKN080
                      BECMG 1216/1219 06006KT=
201805120817 TAF EKSP 120817Z 1209/1306 11008KT 9999 FEW030 BKN080
                      BECMG 1216/1219 06006KT=
201805120534 TAF EKSP 120534Z 1206/1306 11008KT 9999 FEW030 BKN080=
201805120225 TAF EKSP 120225Z 1203/1224 VRB03KT 9999 FEW030
                      PROB40 1203/1204 2000 MIFG
                      BECMG 1205/1208 12008KT=
201805112321 TAF EKSP 112321Z 1200/1224 VRB03KT 9999 FEW030
                      PROB40 1200/1204 2000 MIFG
                      BECMG 1205/1208 12008KT=
201805112020 TAF EKSP 112020Z 1121/1218 VRB03KT 9999 FEW030
                      PROB40 1123/1204 2000 MIFG
                      BECMG 1205/1208 12008KT=
201805111722 TAF EKSP 111722Z 1118/1218 VRB03KT 9999 FEW030
                      PROB40 1123/1204 2000 MIFG
                      BECMG 1205/1208 12008KT=
201805111418 TAF EKSP 111418Z 1115/1212 30006KT 9999 FEW030
                      BECMG 1116/1119 VRB03KT
                      PROB40 1123/1204 2000 MIFG
                      BECMG 1205/1208 12008KT=
201805111122 TAF EKSP 111122Z 1112/1212 29008KT 9999 FEW030
                      BECMG 1116/1119 VRB03KT
                      PROB40 1123/1204 2000 MIFG
                      BECMG 1205/1208 12008KT=
201805110809 TAF EKSP 110809Z 1109/1206 29008KT 9999 FEW030
                      BECMG 1117/1120 VRB03KT
                      PROB40 1123/1204 2000 MIFG=
201805110522 TAF EKSP 110522Z 1106/1206 29008KT 9999 FEW030
                      BECMG 1120/1123 VRB03KT
                      TEMPO 1123/1205 3000 MIFG BR=
201805110226 TAF EKSP 110226Z 1103/1124 29008KT 9999 FEW030 SCT100
                      TEMPO 1103/1106 4000 BR BKN006
                      TEMPO 1122/1124 VRB03KT 5000 BR=
