##########################################################
# Query made at 05/23/2018 08:47:28 UTC
# Time interval: from 05/11/2018 00:00  to 05/12/2018 23:59  UTC
##########################################################
##########################################################
# EKVD, Vamdrup (Denmark)
# WMO index: 06108
# Latitude 55-26N. Longitude 009-20E. Altitude 44 m.
##########################################################
###################################
#  METAR/SPECI from EKVD
###################################
201805122350 METAR EKVD 122350Z AUTO 08007KT //// ///////// 11/09 Q1018=
201805122320 METAR EKVD 122320Z AUTO 07006KT //// ///////// 11/09 Q1018=
201805122250 METAR EKVD 122250Z AUTO 08006KT //// ///////// 11/09 Q1018=
201805122220 METAR EKVD 122220Z AUTO 07005KT //// ///////// 12/08 Q1018=
201805122150 METAR EKVD 122150Z AUTO 08004KT //// ///////// 12/08 Q1018=
201805122120 METAR EKVD 122120Z AUTO 08008KT //// ///////// 13/07 Q1018=
201805122050 METAR EKVD 122050Z AUTO 07007KT //// ///////// 13/06 Q1018=
201805122020 METAR EKVD 122020Z AUTO 07006KT //// ///////// 13/06 Q1018=
201805121950 METAR EKVD 121950Z AUTO 08006KT //// ///////// 12/05 Q1018=
201805121920 METAR EKVD 121920Z AUTO 09005KT //// ///////// 13/06 Q1018=
201805121850 METAR EKVD 121850Z AUTO 07007KT //// ///////// 14/06 Q1018=
201805121820 METAR EKVD 121820Z AUTO 07007KT //// ///////// 15/06 Q1018=
201805121750 METAR EKVD 121750Z AUTO 06009KT //// ///////// 16/07 Q1018=
201805121720 METAR EKVD 121720Z AUTO 07008KT //// ///////// 17/08 Q1018=
201805121650 METAR EKVD 121650Z AUTO 06009KT //// ///////// 17/08 Q1018=
201805121620 METAR EKVD 121620Z AUTO 06010KT //// ///////// 17/09 Q1018=
201805121553 METAR EKVD 121553Z NIL=
201805121523 METAR EKVD 121523Z NIL=
201805121453 METAR EKVD 121453Z NIL=
201805121423 METAR EKVD 121423Z NIL=
201805121350 METAR EKVD 121350Z 11010KT 9999 FEW035 19/10 Q1018=
201805121323 METAR EKVD 121323Z NIL=
201805121250 METAR EKVD 121250Z 11011KT 050V140 9999 FEW035 18/10 Q1019=
201805121223 METAR EKVD 121223Z NIL=
201805121150 METAR EKVD 121150Z 12010KT 080V150 9999 FEW045 SCT080 18/10 Q1019=
201805121123 METAR EKVD 121123Z NIL=
201805121050 METAR EKVD 121050Z 11008KT 080V150 9999 FEW045 SCT080 18/10 Q1019=
201805121023 METAR EKVD 121023Z NIL=
201805120950 METAR COR EKVD 120950Z 10009KT 9999 FEW045 BKN080 15/10 Q1020=
201805120923 METAR EKVD 120923Z NIL=
201805120850 METAR EKVD 120850Z 09005KT 9999 FEW045 BKN080 13/10 Q1020=
201805120823 METAR EKVD 120823Z NIL=
201805120750 METAR EKVD 120750Z 06005KT 030V100 9999 SCT045 BKN080 13/10 Q1020=
201805120723 METAR EKVD 120723Z NIL=
201805120650 METAR EKVD 120650Z 09005KT 9999 FEW045 BKN080 12/10 Q1020=
201805120620 METAR COR EKVD 120620Z 09005KT 9999 FEW045 BKN080 12/10 Q1020=
201805120550 METAR EKVD 120550Z AUTO 09006KT //// ///////// 11/09 Q1020=
201805120520 METAR EKVD 120520Z AUTO 07004KT //// ///////// 10/09 Q1020=
201805120450 METAR EKVD 120450Z AUTO 08003KT //// ///////// 09/09 Q1019=
201805120420 METAR EKVD 120420Z AUTO 08004KT //// ///////// 09/08 Q1019=
201805120350 METAR EKVD 120350Z AUTO 07003KT //// ///////// 07/06 Q1019=
201805120320 METAR EKVD 120320Z AUTO 06002KT //// ///////// 06/05 Q1019=
201805120250 METAR EKVD 120250Z AUTO 07003KT //// ///////// 05/05 Q1019=
201805120220 METAR EKVD 120220Z AUTO 06003KT //// ///////// 05/05 Q1019=
201805120150 METAR EKVD 120150Z AUTO 16001KT //// ///////// 05/05 Q1019=
201805120120 METAR EKVD 120120Z AUTO 04001KT //// ///////// 06/05 Q1019=
201805120050 METAR EKVD 120050Z AUTO 06002KT //// ///////// 06/05 Q1019=
201805120020 METAR EKVD 120020Z AUTO 00000KT //// ///////// 07/06 Q1019=
201805112350 METAR EKVD 112350Z AUTO 19001KT //// ///////// 07/06 Q1020=
201805112320 METAR EKVD 112320Z AUTO 15001KT //// ///////// 07/06 Q1020=
201805112250 METAR EKVD 112250Z AUTO 14003KT //// ///////// 07/06 Q1020=
201805112220 METAR EKVD 112220Z AUTO 22002KT //// ///////// 08/06 Q1020=
201805112150 METAR EKVD 112150Z AUTO 26002KT //// ///////// 09/07 Q1020=
201805112120 METAR EKVD 112120Z AUTO 34002KT //// ///////// 10/07 Q1020=
201805112050 METAR EKVD 112050Z AUTO 26002KT //// ///////// 11/07 Q1020=
201805112020 METAR EKVD 112020Z AUTO 34004KT //// ///////// 11/07 Q1020=
201805111950 METAR EKVD 111950Z AUTO 30005KT //// ///////// 12/07 Q1020=
201805111920 METAR EKVD 111920Z AUTO 28005KT //// ///////// 13/07 Q1019=
201805111850 METAR EKVD 111850Z AUTO 26007KT //// ///////// 13/08 Q1019=
201805111820 METAR EKVD 111820Z AUTO 27008KT //// ///////// 14/07 Q1019=
201805111750 METAR EKVD 111750Z AUTO 27009KT //// ///////// 15/08 Q1019=
201805111720 METAR EKVD 111720Z AUTO 28008KT //// ///////// 16/07 Q1019=
201805111650 METAR EKVD 111650Z AUTO 26009KT //// ///////// 17/06 Q1019=
201805111620 METAR EKVD 111620Z AUTO 26005KT 170V300 //// ///////// 17/06 Q1019=
201805111553 METAR EKVD 111553Z NIL=
201805111523 METAR EKVD 111523Z NIL=
201805111450 METAR EKVD 111450Z 31003KT 9999 FEW044 16/07 Q1020=
201805111423 METAR EKVD 111423Z NIL=
201805111350 METAR EKVD 111350Z 25006KT 190V310 9999 FEW044 17/06 Q1020=
201805111323 METAR EKVD 111323Z NIL=
201805111253 METAR EKVD 111253Z NIL=
201805111250 METAR EKVD 111250Z 26006KT 200V290 9999 FEW038 16/06 Q1020=
201805111223 METAR EKVD 111223Z NIL=
201805111150 METAR EKVD 111150Z 30006KT 240V360 9999 FEW038 16/05 Q1020=
201805111123 METAR EKVD 111123Z NIL=
201805111050 METAR EKVD 111050Z 26007KT 240V300 9999 FEW030 15/07 Q1020=
201805111023 METAR EKVD 111023Z NIL=
201805110950 METAR EKVD 110950Z 30007KT 240V350 9999 FEW030 14/07 Q1020=
201805110923 METAR EKVD 110923Z NIL=
201805110850 METAR EKVD 110850Z 28007KT 240V320 9999 FEW022 13/07 Q1020=
201805110820 METAR EKVD 110820Z 27008KT 9999 FEW012 13/08 Q1020=
201805110753 METAR EKVD 110753Z NIL=
201805110723 METAR EKVD 110723Z NIL=
201805110650 METAR EKVD 110650Z 29008KT 260V320 9999 FEW008 11/09 Q1020=
201805110620 METAR EKVD 110620Z 30009KT 9999 FEW008 10/08 Q1020=
201805110550 METAR EKVD 110550Z 29007KT 9999 FEW004 10/08 Q1020=
201805110523 METAR EKVD 110523Z NIL=
201805110520 METAR EKVD 110520Z 29005KT 260V320 9999 FEW004 09/08 Q1019=
201805110450 METAR EKVD 110450Z AUTO 28005KT //// ///////// 09/08 Q1019=
201805110420 METAR EKVD 110420Z AUTO 30007KT //// ///////// 09/08 Q1019=
201805110350 METAR EKVD 110350Z AUTO 30005KT //// ///////// 10/08 Q1019=
201805110320 METAR EKVD 110320Z AUTO 30005KT 280V340 //// ///////// 10/08 Q1018=
201805110250 METAR EKVD 110250Z AUTO 31007KT //// ///////// 09/08 Q1018=
201805110220 METAR EKVD 110220Z AUTO 31006KT //// ///////// 10/08 Q1018=
201805110150 METAR EKVD 110150Z AUTO 29006KT //// ///////// 10/08 Q1018=
201805110120 METAR EKVD 110120Z AUTO 29006KT //// ///////// 10/09 Q1018=
201805110050 METAR EKVD 110050Z AUTO 30007KT //// ///////// 10/09 Q1017=
201805110020 METAR EKVD 110020Z AUTO 30008KT //// ///////// 10/09 Q1017=
###################################
#  short TAF from EKVD
###################################
201805120846 TAF EKVD 120846Z 1209/1215 10008KT 9999 FEW045=
201805120739 TAF EKVD 120739Z 1208/1215 10006KT 9999 FEW045=
201805111150 TAF EKVD 111150Z 1112/1116 28005KT 9999 SCT030=
201805110854 TAF EKVD 110854Z 1109/1116 28005KT 9999 SCT030=
201805110650 TAF EKVD 110650Z 1107/1115 28005KT 9999 SCT030=
# No large TAF reports from EKVD in databse.
