##########################################################
# Query made at 05/23/2018 08:41:26 UTC
# Time interval: from 05/11/2018 00:00  to 05/12/2018 23:59  UTC
##########################################################
##########################################################
# EKVJ, Stauning Lufthavn (Denmark)
# WMO index: 06066
# Latitude 56-00N. Longitude 008-21E. Altitude 5 m.
##########################################################
###################################
#  METAR/SPECI from EKVJ
###################################
201805122353 METAR EKVJ 122353Z NIL=
201805122323 METAR EKVJ 122323Z NIL=
201805122253 METAR EKVJ 122253Z NIL=
201805122223 METAR EKVJ 122223Z NIL=
201805122153 METAR EKVJ 122153Z NIL=
201805122123 METAR EKVJ 122123Z NIL=
201805122053 METAR EKVJ 122053Z NIL=
201805122023 METAR EKVJ 122023Z NIL=
201805121953 METAR EKVJ 121953Z NIL=
201805121923 METAR EKVJ 121923Z NIL=
201805121853 METAR EKVJ 121853Z NIL=
201805121823 METAR EKVJ 121823Z NIL=
201805121753 METAR EKVJ 121753Z NIL=
201805121723 METAR EKVJ 121723Z NIL=
201805121653 METAR EKVJ 121653Z NIL=
201805121623 METAR EKVJ 121623Z NIL=
201805121553 METAR EKVJ 121553Z NIL=
201805121523 METAR EKVJ 121523Z NIL=
201805121453 METAR EKVJ 121453Z NIL=
201805121423 METAR EKVJ 121423Z NIL=
201805121353 METAR EKVJ 121353Z NIL=
201805121323 METAR EKVJ 121323Z NIL=
201805121253 METAR EKVJ 121253Z NIL=
201805121223 METAR EKVJ 121223Z NIL=
201805121153 METAR EKVJ 121153Z NIL=
201805121123 METAR EKVJ 121123Z NIL=
201805121053 METAR EKVJ 121053Z NIL=
201805121023 METAR EKVJ 121023Z NIL=
201805120953 METAR EKVJ 120953Z NIL=
201805120923 METAR EKVJ 120923Z NIL=
201805120853 METAR EKVJ 120853Z NIL=
201805120823 METAR EKVJ 120823Z NIL=
201805120753 METAR EKVJ 120753Z NIL=
201805120723 METAR EKVJ 120723Z NIL=
201805120653 METAR EKVJ 120653Z NIL=
201805120623 METAR EKVJ 120623Z NIL=
201805120553 METAR EKVJ 120553Z NIL=
201805120523 METAR EKVJ 120523Z NIL=
201805120453 METAR EKVJ 120453Z NIL=
201805120423 METAR EKVJ 120423Z NIL=
201805120353 METAR EKVJ 120353Z NIL=
201805120323 METAR EKVJ 120323Z NIL=
201805120253 METAR EKVJ 120253Z NIL=
201805120223 METAR EKVJ 120223Z NIL=
201805120153 METAR EKVJ 120153Z NIL=
201805120123 METAR EKVJ 120123Z NIL=
201805120053 METAR EKVJ 120053Z NIL=
201805120023 METAR EKVJ 120023Z NIL=
201805112353 METAR EKVJ 112353Z NIL=
201805112323 METAR EKVJ 112323Z NIL=
201805112253 METAR EKVJ 112253Z NIL=
201805112223 METAR EKVJ 112223Z NIL=
201805112153 METAR EKVJ 112153Z NIL=
201805112123 METAR EKVJ 112123Z NIL=
201805112053 METAR EKVJ 112053Z NIL=
201805112023 METAR EKVJ 112023Z NIL=
201805111953 METAR EKVJ 111953Z NIL=
201805111923 METAR EKVJ 111923Z NIL=
201805111853 METAR EKVJ 111853Z NIL=
201805111823 METAR EKVJ 111823Z NIL=
201805111753 METAR EKVJ 111753Z NIL=
201805111723 METAR EKVJ 111723Z NIL=
201805111653 METAR EKVJ 111653Z NIL=
201805111623 METAR EKVJ 111623Z NIL=
201805111553 METAR EKVJ 111553Z NIL=
201805111523 METAR EKVJ 111523Z NIL=
201805111453 METAR EKVJ 111453Z NIL=
201805111423 METAR EKVJ 111423Z NIL=
201805111350 METAR EKVJ 111350Z 27008KT 230V330 9999 FEW025 14/09 Q1020=
201805111323 METAR EKVJ 111323Z NIL=
201805111250 METAR EKVJ 111250Z 27008KT 220V330 9999 FEW025 13/09 Q1020=
201805111223 METAR EKVJ 111223Z NIL=
201805111150 METAR EKVJ 111150Z 27010KT 240V300 9999 FEW025 13/10 Q1020=
201805111123 METAR EKVJ 111123Z NIL=
201805111050 METAR EKVJ 111050Z 30011KT 9999 FEW020 13/10 Q1020=
201805111023 METAR EKVJ 111023Z NIL=
201805110950 METAR EKVJ 110950Z 28011KT 230V330 9999 FEW020 13/10 Q1020=
201805110923 METAR EKVJ 110923Z NIL=
201805110850 METAR EKVJ 110850Z 27011KT 240V300 9999 FEW025 12/10 Q1020=
201805110823 METAR EKVJ 110823Z NIL=
201805110750 METAR EKVJ 110750Z 30012KT 9999 BKN025 11/09 Q1020=
201805110723 METAR EKVJ 110723Z NIL=
201805110650 METAR EKVJ 110650Z 30010KT 9999 FEW025 11/10 Q1020=
201805110620 METAR EKVJ 110620Z 31012KT 9999 SCT025 10/09 Q1020=
201805110553 METAR EKVJ 110553Z NIL=
201805110523 METAR EKVJ 110523Z NIL=
201805110453 METAR EKVJ 110453Z NIL=
201805110423 METAR EKVJ 110423Z NIL=
201805110353 METAR EKVJ 110353Z NIL=
201805110323 METAR EKVJ 110323Z NIL=
201805110253 METAR EKVJ 110253Z NIL=
201805110223 METAR EKVJ 110223Z NIL=
201805110153 METAR EKVJ 110153Z NIL=
201805110123 METAR EKVJ 110123Z NIL=
201805110053 METAR EKVJ 110053Z NIL=
201805110023 METAR EKVJ 110023Z NIL=
###################################
#  short TAF from EKVJ
###################################
201805110854 TAF EKVJ 110854Z 1109/1115 28008KT 9999 FEW030=
201805110650 TAF EKVJ 110650Z 1107/1115 28008KT 9999 FEW030=
# No large TAF reports from EKVJ in databse.
