##########################################################
# Query made at 05/23/2018 08:36:32 UTC
# Time interval: from 05/11/2018 00:00  to 05/12/2018 23:59  UTC
##########################################################

##########################################################
# EKYT, Aalborg (Denmark)
# WMO index: 06030
# Latitude 57-06N. Longitude 009-51E. Altitude 3 m.
##########################################################

###################################
#  METAR/SPECI from EKYT
###################################
201805122350 METAR EKYT 122350Z AUTO 06004KT 030V090 9999NDV FEW050///
                        SCT080/// ///// Q1019=
201805122320 METAR EKYT 122320Z AUTO 05006KT 9999NDV FEW055/// BKN080///
                        ///// Q1019=
201805122250 METAR EKYT 122250Z AUTO 05006KT 9999NDV FEW060/// BKN075///
                        15/06 Q1019=
201805122220 METAR EKYT 122220Z AUTO 02003KT 9999NDV BKN060/// BKN080///
                        14/06 Q1019=
201805122150 METAR EKYT 122150Z AUTO 06003KT 9999NDV BKN065/// 14/07 Q1019=
201805122120 METAR EKYT 122120Z AUTO 04005KT 9999NDV BKN075/// 15/06 Q1019=
201805122050 METAR EKYT 122050Z AUTO 06005KT 9999NDV BKN075/// 14/07 Q1019=
201805122020 METAR EKYT 122020Z AUTO 07005KT 9999NDV BKN075/// 14/08 Q1019=
201805121950 METAR EKYT 121950Z AUTO 08004KT 9999NDV BKN075/// 14/08 Q1019=
201805121920 METAR EKYT 121920Z AUTO 07004KT 9999NDV OVC075/// 15/09 Q1019=
201805121850 METAR EKYT 121850Z AUTO 08005KT 9999NDV BKN075/// 15/09 Q1019=
201805121820 METAR EKYT 121820Z AUTO 09005KT 9999NDV NCD 15/09 Q1019=
201805121750 METAR EKYT 121750Z AUTO 09007KT 9999NDV NCD 17/08 Q1019=
201805121720 METAR EKYT 121720Z AUTO 08007KT 9999NDV NCD 18/07 Q1019=
201805121650 METAR EKYT 121650Z AUTO 10007KT 9999NDV NCD 18/07 Q1019=
201805121620 METAR EKYT 121620Z AUTO 11008KT 9999NDV NCD 19/08 Q1019=
201805121550 METAR EKYT 121550Z AUTO 11008KT 9999NDV NCD 19/08 Q1019=
201805121520 METAR EKYT 121520Z AUTO 12009KT 9999NDV NCD 19/09 Q1020=
201805121450 METAR EKYT 121450Z AUTO 10007KT 070V130 9999NDV NCD 18/09
                        Q1019=
201805121420 METAR EKYT 121420Z AUTO 10006KT 080V160 9999NDV FEW080///
                        19/10 Q1020=
201805121350 METAR EKYT 121350Z AUTO 08006KT 9999NDV FEW080/// 19/10 Q1020=
201805121320 METAR EKYT 121320Z AUTO 11005KT 050V130 9999NDV NCD 19/09
                        Q1020=
201805121250 METAR EKYT 121250Z AUTO 10008KT 070V130 9999NDV FEW075///
                        SCT200/// 19/10 Q1020=
201805121220 METAR EKYT 121220Z AUTO 09004KT 030V150 9999NDV FEW033///
                        SCT080/// 19/10 Q1020=
201805121150 METAR EKYT 121150Z AUTO 14004KT 070V200 9999NDV FEW032///
                        18/10 Q1020=
201805121120 METAR EKYT 121120Z AUTO 10006KT 060V150 9999NDV FEW032///
                        18/11 Q1020=
201805121050 METAR EKYT 121050Z AUTO 10006KT 060V130 9999NDV FEW033///
                        18/10 Q1020=
201805121020 METAR EKYT 121020Z AUTO 21004KT 150V290 9999NDV FEW029///
                        18/10 Q1021=
201805120950 METAR EKYT 120950Z AUTO 15005KT 110V190 9999NDV FEW028///
                        17/11 Q1021=
201805120920 METAR EKYT 120920Z AUTO 15006KT 9999NDV FEW030/// 17/11 Q1021=
201805120850 METAR EKYT 120850Z AUTO 15006KT 120V180 9999NDV NCD 17/09
                        Q1021=
201805120820 METAR EKYT 120820Z AUTO 13006KT 100V170 9999NDV NCD 16/09
                        Q1021=
201805120750 METAR EKYT 120750Z AUTO 12007KT 080V150 9999NDV NCD 15/08
                        Q1021=
201805120720 METAR EKYT 120720Z AUTO 11007KT 9999NDV NCD 14/07 Q1021=
201805120650 METAR EKYT 120650Z AUTO 09005KT 9999NDV NCD 13/07 Q1021=
201805120620 METAR EKYT 120620Z AUTO 08004KT 9999NDV NCD 12/07 Q1021=
201805120550 METAR EKYT 120550Z AUTO 10003KT 9999NDV NCD 10/07 Q1021=
201805120520 METAR EKYT 120520Z AUTO 09003KT 9999NDV NCD 08/07 Q1020=
201805120450 METAR EKYT 120450Z AUTO 08005KT 9999NDV FEW090/// 06/05 Q1020=
201805120420 METAR EKYT 120420Z AUTO 10006KT 9999NDV NCD 05/04 Q1021=
201805120350 METAR EKYT 120350Z AUTO 10004KT 9999NDV NCD 05/04 Q1020=
201805120320 METAR EKYT 120320Z AUTO 07002KT 9999NDV NCD 05/04 Q1020=
201805120250 METAR EKYT 120250Z AUTO 06001KT 9999NDV NCD 05/04 Q1020=
201805120220 METAR EKYT 120220Z AUTO 06001KT 9999NDV NCD 05/04 Q1020=
201805120150 METAR EKYT 120150Z AUTO 02001KT 9999NDV NCD 06/04 Q1020=
201805120120 METAR EKYT 120120Z AUTO 08001KT 9999NDV NCD 07/05 Q1020=
201805120050 METAR EKYT 120050Z AUTO 08001KT 9999NDV NCD 07/05 Q1020=
201805120020 METAR EKYT 120020Z AUTO 10002KT 9999NDV NCD 07/05 Q1020=
201805112350 METAR EKYT 112350Z AUTO 12001KT 9999NDV NCD 07/05 Q1020=
201805112320 METAR EKYT 112320Z AUTO 10002KT 9999NDV NCD 06/05 Q1020=
201805112250 METAR EKYT 112250Z AUTO 08002KT 9999NDV NCD 07/05 Q1020=
201805112220 METAR EKYT 112220Z AUTO 08002KT 9999NDV NCD 08/05 Q1020=
201805112150 METAR EKYT 112150Z AUTO 08001KT 9999NDV NCD 08/05 Q1020=
201805112120 METAR EKYT 112120Z AUTO 02002KT 9999NDV NCD 08/05 Q1020=
201805112050 METAR EKYT 112050Z AUTO 36002KT 9999NDV NCD 09/05 Q1020=
201805112020 METAR EKYT 112020Z AUTO 34002KT 9999NDV NCD 10/05 Q1020=
201805111950 METAR EKYT 111950Z AUTO 33002KT 9999NDV NCD 11/05 Q1020=
201805111920 METAR EKYT 111920Z AUTO 34003KT 9999NDV NCD 12/04 Q1020=
201805111850 METAR EKYT 111850Z AUTO 32004KT 9999NDV NCD 12/04 Q1020=
201805111820 METAR EKYT 111820Z AUTO 32003KT 9999NDV NCD 13/05 Q1020=
201805111750 METAR EKYT 111750Z AUTO 31006KT 280V350 9999NDV NCD 14/04
                        Q1019=
201805111720 METAR EKYT 111720Z AUTO 29006KT 260V320 9999NDV FEW120///
                        15/04 Q1019=
201805111650 METAR EKYT 111650Z AUTO 29006KT 9999NDV NCD 15/04 Q1019=
201805111620 METAR EKYT 111620Z AUTO 28006KT 250V330 9999NDV NCD 16/05
                        Q1019=
201805111550 METAR EKYT 111550Z AUTO 29006KT 250V310 9999NDV NCD 16/03
                        Q1019=
201805111520 METAR EKYT 111520Z AUTO 29007KT 250V330 9999NDV NCD 16/04
                        Q1019=
201805111450 METAR EKYT 111450Z AUTO 28007KT 250V320 9999NDV NCD 16/04
                        Q1020=
201805111420 METAR EKYT 111420Z AUTO 30010KT 9999NDV NCD 15/06 Q1020=
201805111350 METAR EKYT 111350Z AUTO 28012KT 9999NDV NCD 15/07 Q1020=
201805111320 METAR EKYT 111320Z AUTO 28010KT 260V330 9999NDV FEW030///
                        16/08 Q1019=
201805111250 METAR EKYT 111250Z AUTO 26009KT 240V310 9999NDV FEW028///
                        16/09 Q1019=
201805111220 METAR EKYT 111220Z AUTO 27010KT 240V300 9999NDV FEW027///
                        15/09 Q1019=
201805111150 METAR EKYT 111150Z AUTO 25014KT 9999NDV NCD 16/09 Q1019=
201805111120 METAR EKYT 111120Z AUTO 24012KT 9999NDV NCD 16/09 Q1019=
201805111050 METAR EKYT 111050Z AUTO 23012KT 9999NDV FEW200/// 15/09 Q1019=
201805111020 METAR EKYT 111020Z AUTO 23012KT 9999NDV FEW029/// 15/09 Q1019=
201805110950 METAR EKYT 110950Z AUTO 26009KT 230V290 9999NDV NCD 16/09
                        Q1018=
201805110920 METAR EKYT 110920Z AUTO 26011KT 9999NDV NCD 15/08 Q1018=
201805110850 METAR EKYT 110850Z AUTO 26012KT 9999NDV NCD 14/09 Q1018=
201805110820 METAR EKYT 110820Z AUTO 26011KT 9999NDV FEW019/// 14/10 Q1018=
201805110750 METAR EKYT 110750Z AUTO 28011KT 9999NDV NCD 13/09 Q1018=
201805110720 METAR EKYT 110720Z AUTO 27010KT 9999NDV FEW230/// 13/08 Q1018=
201805110650 METAR EKYT 110650Z AUTO 28010KT 9999NDV NCD 12/09 Q1018=
201805110620 METAR EKYT 110620Z AUTO 29011KT 260V320 9999NDV FEW130///
                        11/09 Q1017=
201805110550 METAR EKYT 110550Z AUTO 28009KT 9999NDV NCD 11/08 Q1017=
201805110520 METAR EKYT 110520Z AUTO 27010KT 9999NDV NCD 11/09 Q1017=
201805110450 METAR EKYT 110450Z AUTO 27009KT 9999NDV FEW008/// 10/09 Q1017=
201805110420 METAR EKYT 110420Z AUTO 27009KT 9999NDV FEW008/// 09/08 Q1017=
201805110350 METAR EKYT 110350Z AUTO 28011KT 9999NDV SCT095/// 10/09 Q1017=
201805110320 METAR EKYT 110320Z AUTO 27010KT 9999NDV BKN095/// 10/09 Q1016=
201805110250 METAR EKYT 110250Z AUTO 28010KT 9999NDV SCT090/// 10/09 Q1016=
201805110220 METAR EKYT 110220Z AUTO 29008KT 9999NDV FEW075/// 10/09 Q1016=
201805110150 METAR EKYT 110150Z AUTO 28009KT 9999NDV SCT075/// BKN100///
                        10/09 Q1015=
201805110120 METAR EKYT 110120Z AUTO 28009KT 9999NDV SCT075/// 10/09 Q1015=
201805110050 METAR EKYT 110050Z AUTO 28010KT 9999NDV FEW007/// 10/09 Q1015=
201805110020 METAR EKYT 110020Z AUTO 29011KT 9999NDV FEW007/// 10/09 Q1014=

# No short TAF reports from EKYT in databse.

###################################
#  large TAF from EKYT
###################################
201805122326 TAF EKYT 122326Z 1300/1324 08005KT 9999 BKN075
                      BECMG 1307/1310 11012KT=
201805122023 TAF EKYT 122023Z 1221/1318 08005KT 9999 BKN075
                      BECMG 1307/1310 11012KT=
201805121721 TAF EKYT 121721Z 1218/1318 09008KT 9999 FEW080
                      BECMG 1307/1310 11012KT=
201805121407 TAF EKYT 121407Z 1215/1312 VRB06KT 9999 SCT080
                      BECMG 1306/1309 11010KT=
201805121121 TAF EKYT 121121Z 1212/1312 VRB06KT 9999 FEW030
                      BECMG 1306/1308 11008KT=
201805120817 TAF EKYT 120817Z 1209/1306 VRB06KT 9999 FEW030=
201805120534 TAF EKYT 120534Z 1206/1306 VRB06KT 9999 FEW030=
201805120225 TAF EKYT 120225Z 1203/1224 VRB03KT 9999 FEW030
                      BECMG 1214/1217 10006KT=
201805112321 TAF EKYT 112321Z 1200/1224 VRB03KT 9999 FEW030
                      BECMG 1214/1217 10006KT=
201805112020 TAF EKYT 112020Z 1121/1218 VRB03KT 9999 FEW030
                      BECMG 1214/1217 10006KT=
201805111722 TAF EKYT 111722Z 1118/1218 27012KT 9999 FEW030
                      BECMG 1119/1122 VRB03KT
                      BECMG 1214/1217 10006KT=
201805111417 TAF EKYT 111417Z 1115/1212 27012KT 9999 FEW030
                      BECMG 1119/1122 VRB03KT=
201805111122 TAF EKYT 111122Z 1112/1212 24012KT 9999 FEW030
                      BECMG 1119/1122 VRB03KT=
201805110809 TAF EKYT 110809Z 1109/1206 28012KT 9999 FEW030
                      BECMG 1119/1122 VRB03KT=
201805110520 TAF EKYT 110520Z 1106/1206 28012KT 9999 FEW030
                      BECMG 1121/1124 VRB03KT
                      TEMPO 1201/1205 5000 BR=
201805110226 TAF EKYT 110226Z 1103/1124 28012KT 9999 FEW030 SCT100
                      TEMPO 1103/1106 5000 BR BKN006=
